{"version": 0.6, "generator": "Overpass API 0.7.58.5 b0c4acbb", "osm3s": {"timestamp_osm_base": "2022-10-12T13:59:54Z", "copyright": "The data included in this document is from www.openstreetmap.org. The data is made available under ODbL."}, "elements": [{"type": "node", "id": 207694300, "lat": 53.901571, "lon": 27.5605135, "tags": {"int_name": "Kastry\u010dnickaja/Kupala\u016dskaja", "name": "\u041a\u0430\u0441\u0442\u0440\u044b\u0447\u043d\u0456\u0446\u043a\u0430\u044f/\u041a\u0443\u043f\u0430\u043b\u0430\u045e\u0441\u043a\u0430\u044f", "name:be": "\u041a\u0430\u0441\u0442\u0440\u044b\u0447\u043d\u0456\u0446\u043a\u0430\u044f/\u041a\u0443\u043f\u0430\u043b\u0430\u045e\u0441\u043a\u0430\u044f", "name:ru": "\u041e\u043a\u0442\u044f\u0431\u0440\u044c\u0441\u043a\u0430\u044f/\u041a\u0443\u043f\u0430\u043b\u043e\u0432\u0441\u043a\u0430\u044f", "network": "\u041c\u0438\u043d\u0441\u043a\u0438\u0439 \u043c\u0435\u0442\u0440\u043e\u043f\u043e\u043b\u0438\u0442\u0435\u043d", "railway": "subway_entrance", "ref": "2-2"}}, {"type": "node", "id": 207694304, "lat": 53.9012821, "lon": 27.5609045, "tags": {"int_name": "Kastry\u010dnickaja/Kupala\u016dskaja", "layer": "-1", "name": "\u041a\u0430\u0441\u0442\u0440\u044b\u0447\u043d\u0456\u0446\u043a\u0430\u044f/\u041a\u0443\u043f\u0430\u043b\u0430\u045e\u0441\u043a\u0430\u044f", "name:be": "\u041a\u0430\u0441\u0442\u0440\u044b\u0447\u043d\u0456\u0446\u043a\u0430\u044f/\u041a\u0443\u043f\u0430\u043b\u0430\u045e\u0441\u043a\u0430\u044f", "name:ru": "\u041e\u043a\u0442\u044f\u0431\u0440\u044c\u0441\u043a\u0430\u044f/\u041a\u0443\u043f\u0430\u043b\u043e\u0432\u0441\u043a\u0430\u044f", "network": "\u041c\u0438\u043d\u0441\u043a\u0438\u0439 \u043c\u0435\u0442\u0440\u043e\u043f\u043e\u043b\u0438\u0442\u0435\u043d", "railway": "subway_entrance", "ref": "1-2"}}, {"type": "node", "id": 207694307, "lat": 53.900312, "lon": 27.5623627, "tags": {"colour": "red", "int_name": "Kupala\u016dskaja", "name": "\u041a\u0443\u043f\u0430\u043b\u0430\u045e\u0441\u043a\u0430\u044f", "name:be": "\u041a\u0443\u043f\u0430\u043b\u0430\u045e\u0441\u043a\u0430\u044f", "name:ru": "\u041a\u0443\u043f\u0430\u043b\u043e\u0432\u0441\u043a\u0430\u044f", "network": "\u041c\u0438\u043d\u0441\u043a\u0438\u0439 \u043c\u0435\u0442\u0440\u043e\u043f\u043e\u043b\u0438\u0442\u0435\u043d", "railway": "subway_entrance"}}, {"type": "node", "id": 207694309, "lat": 53.9029253, "lon": 27.5627148, "tags": {"colour": "blue", "int_name": "Kastry\u010dnickaja", "name": "\u041a\u0430\u0441\u0442\u0440\u044b\u0447\u043d\u0456\u0446\u043a\u0430\u044f", "name:be": "\u041a\u0430\u0441\u0442\u0440\u044b\u0447\u043d\u0456\u0446\u043a\u0430\u044f", "name:ru": "\u041e\u043a\u0442\u044f\u0431\u0440\u044c\u0441\u043a\u0430\u044f", "network": "\u041c\u0438\u043d\u0441\u043a\u0438\u0439 \u043c\u0435\u0442\u0440\u043e\u043f\u043e\u043b\u0438\u0442\u0435\u043d", "railway": "subway_entrance", "ref": "4-1"}}, {"type": "node", "id": 207694311, "lat": 53.902484, "lon": 27.5634673, "tags": {"colour": "blue", "int_name": "Kastry\u010dnickaja", "name": "\u041a\u0430\u0441\u0442\u0440\u044b\u0447\u043d\u0456\u0446\u043a\u0430\u044f", "name:be": "\u041a\u0430\u0441\u0442\u0440\u044b\u0447\u043d\u0456\u0446\u043a\u0430\u044f", "name:ru": "\u041e\u043a\u0442\u044f\u0431\u0440\u044c\u0441\u043a\u0430\u044f", "network": "\u041c\u0438\u043d\u0441\u043a\u0438\u0439 \u043c\u0435\u0442\u0440\u043e\u043f\u043e\u043b\u0438\u0442\u0435\u043d", "railway": "subway_entrance", "ref": "3-1", "wheelchair": "limited"}}, {"type": "node", "id": 207694320, "lat": 53.9152922, "lon": 27.5827658, "tags": {"colour": "blue", "int_name": "plo\u0161\u010da Jakuba Kolasa", "name": "\u041f\u043b\u043e\u0449\u0430\u0434\u044c \u042f\u043a\u0443\u0431\u0430 \u041a\u043e\u043b\u0430\u0441\u0430", "name:be": "\u041f\u043b\u043e\u0448\u0447\u0430 \u042f\u043a\u0443\u0431\u0430 \u041a\u043e\u043b\u0430\u0441\u0430", "name:ru": "\u041f\u043b\u043e\u0449\u0430\u0434\u044c \u042f\u043a\u0443\u0431\u0430 \u041a\u043e\u043b\u0430\u0441\u0430", "network": "\u041c\u0438\u043d\u0441\u043a\u0438\u0439 \u043c\u0435\u0442\u0440\u043e\u043f\u043e\u043b\u0438\u0442\u0435\u043d", "railway": "subway_entrance", "wheelchair": "no"}}, {"type": "node", "id": 207694322, "lat": 53.9150062, "lon": 27.5833791, "tags": {"colour": "blue", "int_name": "plo\u0161\u010da Jakuba Kolasa", "name": "\u041f\u043b\u043e\u0449\u0430\u0434\u044c \u042f\u043a\u0443\u0431\u0430 \u041a\u043e\u043b\u0430\u0441\u0430", "name:be": "\u041f\u043b\u043e\u0448\u0447\u0430 \u042f\u043a\u0443\u0431\u0430 \u041a\u043e\u043b\u0430\u0441\u0430", "name:ru": "\u041f\u043b\u043e\u0449\u0430\u0434\u044c \u042f\u043a\u0443\u0431\u0430 \u041a\u043e\u043b\u0430\u0441\u0430", "network": "\u041c\u0438\u043d\u0441\u043a\u0438\u0439 \u043c\u0435\u0442\u0440\u043e\u043f\u043e\u043b\u0438\u0442\u0435\u043d", "railway": "subway_entrance", "wheelchair": "yes"}}, {"type": "node", "id": 207694324, "lat": 53.915733, "lon": 27.5818116, "tags": {"colour": "blue", "int_name": "plo\u0161\u010da Jakuba Kolasa", "name": "\u041f\u043b\u043e\u0449\u0430\u0434\u044c \u042f\u043a\u0443\u0431\u0430 \u041a\u043e\u043b\u0430\u0441\u0430", "name:be": "\u041f\u043b\u043e\u0448\u0447\u0430 \u042f\u043a\u0443\u0431\u0430 \u041a\u043e\u043b\u0430\u0441\u0430", "name:ru": "\u041f\u043b\u043e\u0449\u0430\u0434\u044c \u042f\u043a\u0443\u0431\u0430 \u041a\u043e\u043b\u0430\u0441\u0430", "network": "\u041c\u0438\u043d\u0441\u043a\u0438\u0439 \u043c\u0435\u0442\u0440\u043e\u043f\u043e\u043b\u0438\u0442\u0435\u043d", "railway": "subway_entrance", "wheelchair": "yes"}}, {"type": "node", "id": 207694326, "lat": 53.9161177, "lon": 27.5824427, "tags": {"colour": "blue", "int_name": "plo\u0161\u010da Jakuba Kolasa", "name": "\u041f\u043b\u043e\u0449\u0430\u0434\u044c \u042f\u043a\u0443\u0431\u0430 \u041a\u043e\u043b\u0430\u0441\u0430", "name:be": "\u041f\u043b\u043e\u0448\u0447\u0430 \u042f\u043a\u0443\u0431\u0430 \u041a\u043e\u043b\u0430\u0441\u0430", "name:ru": "\u041f\u043b\u043e\u0449\u0430\u0434\u044c \u042f\u043a\u0443\u0431\u0430 \u041a\u043e\u043b\u0430\u0441\u0430", "network": "\u041c\u0438\u043d\u0441\u043a\u0438\u0439 \u043c\u0435\u0442\u0440\u043e\u043f\u043e\u043b\u0438\u0442\u0435\u043d", "railway": "subway_entrance", "wheelchair": "yes"}}, {"type": "node", "id": 207694327, "lat": 53.9163476, "lon": 27.5843792, "tags": {"colour": "blue", "int_name": "plo\u0161\u010da Jakuba Kolasa", "name": "\u041f\u043b\u043e\u0449\u0430\u0434\u044c \u042f\u043a\u0443\u0431\u0430 \u041a\u043e\u043b\u0430\u0441\u0430", "name:be": "\u041f\u043b\u043e\u0448\u0447\u0430 \u042f\u043a\u0443\u0431\u0430 \u041a\u043e\u043b\u0430\u0441\u0430", "name:ru": "\u041f\u043b\u043e\u0449\u0430\u0434\u044c \u042f\u043a\u0443\u0431\u0430 \u041a\u043e\u043b\u0430\u0441\u0430", "network": "\u041c\u0438\u043d\u0441\u043a\u0438\u0439 \u043c\u0435\u0442\u0440\u043e\u043f\u043e\u043b\u0438\u0442\u0435\u043d", "railway": "subway_entrance", "wheelchair": "yes"}}, {"type": "node", "id": 207695493, "lat": 53.9218485, "lon": 27.5975359, "tags": {"colour": "blue", "int_name": "Akademija navuk", "name": "\u0410\u043a\u0430\u0434\u044d\u043c\u0456\u044f \u043d\u0430\u0432\u0443\u043a", "name:be": "\u0410\u043a\u0430\u0434\u044d\u043c\u0456\u044f \u043d\u0430\u0432\u0443\u043a", "name:ru": "\u0410\u043a\u0430\u0434\u0435\u043c\u0438\u044f \u043d\u0430\u0443\u043a", "network": "\u041c\u0438\u043d\u0441\u043a\u0438\u0439 \u043c\u0435\u0442\u0440\u043e\u043f\u043e\u043b\u0438\u0442\u0435\u043d", "railway": "subway_entrance"}}, {"type": "node", "id": 207696798, "lat": 53.9349765, "lon": 27.6519981, "tags": {"colour": "blue", "int_name": "Uschod", "name": "\u0423\u0441\u0445\u043e\u0434", "name:be": "\u0423\u0441\u0445\u043e\u0434", "name:ru": "\u0412\u043e\u0441\u0442\u043e\u043a", "network": "\u041c\u0438\u043d\u0441\u043a\u0438\u0439 \u043c\u0435\u0442\u0440\u043e\u043f\u043e\u043b\u0438\u0442\u0435\u043d", "railway": "subway_entrance", "ref": "4-1", "wheelchair": "yes"}}, {"type": "node", "id": 207696836, "lat": 53.9342991, "lon": 27.6495091, "tags": {"colour": "blue", "int_name": "Uschod", "name": "\u0423\u0441\u0445\u043e\u0434", "name:be": "\u0423\u0441\u0445\u043e\u0434", "name:ru": "\u0412\u043e\u0441\u0442\u043e\u043a", "network": "\u041c\u0438\u043d\u0441\u043a\u0438\u0439 \u043c\u0435\u0442\u0440\u043e\u043f\u043e\u043b\u0438\u0442\u0435\u043d", "railway": "subway_entrance", "ref": "2-1", "wheelchair": "no"}}, {"type": "node", "id": 207697697, "lat": 53.9246087, "lon": 27.6142373, "tags": {"colour": "blue", "name": "\u041f\u0430\u0440\u043a \u0427\u0430\u043b\u044e\u0441\u043a\u0456\u043d\u0446\u0430\u045e", "name:be": "\u041f\u0430\u0440\u043a \u0427\u0430\u043b\u044e\u0441\u043a\u0456\u043d\u0446\u0430\u045e", "name:ru": "\u041f\u0430\u0440\u043a \u0427\u0435\u043b\u044e\u0441\u043a\u0438\u043d\u0446\u0435\u0432", "network": "\u041c\u0438\u043d\u0441\u043a\u0438\u0439 \u043c\u0435\u0442\u0440\u043e\u043f\u043e\u043b\u0438\u0442\u0435\u043d", "railway": "subway_entrance", "wheelchair": "yes"}}, {"type": "node", "id": 207704345, "lat": 53.8914015, "lon": 27.5485831, "tags": {"colour": "blue", "name": "\u041f\u043b\u043e\u0448\u0447\u0430 \u041b\u0435\u043d\u0456\u043d\u0430", "name:be": "\u041f\u043b\u043e\u0448\u0447\u0430 \u041b\u0435\u043d\u0456\u043d\u0430", "name:ru": "\u041f\u043b\u043e\u0449\u0430\u0434\u044c \u041b\u0435\u043d\u0438\u043d\u0430", "network": "\u041c\u0438\u043d\u0441\u043a\u0438\u0439 \u043c\u0435\u0442\u0440\u043e\u043f\u043e\u043b\u0438\u0442\u0435\u043d", "network:be": "\u041c\u0456\u043d\u0441\u043a\u0456 \u043c\u0435\u0442\u0440\u0430\u043f\u0430\u043b\u0456\u0442\u044d\u043d", "network:ru": "\u041c\u0438\u043d\u0441\u043a\u0438\u0439 \u043c\u0435\u0442\u0440\u043e\u043f\u043e\u043b\u0438\u0442\u0435\u043d", "railway": "subway_entrance"}}, {"type": "node", "id": 209077826, "lat": 53.905331, "lon": 27.540737, "tags": {"int_name": "Frunzienskaja", "name": "\u0424\u0440\u0443\u043d\u0437\u0435\u043d\u0441\u043a\u0430\u044f", "name:be": "\u0424\u0440\u0443\u043d\u0437\u0435\u043d\u0441\u043a\u0430\u044f", "name:ru": "\u0424\u0440\u0443\u043d\u0437\u0435\u043d\u0441\u043a\u0430\u044f", "network": "\u041c\u0438\u043d\u0441\u043a\u0438\u0439 \u043c\u0435\u0442\u0440\u043e\u043f\u043e\u043b\u0438\u0442\u0435\u043d", "railway": "subway_entrance"}}, {"type": "node", "id": 209079644, "lat": 53.9052607, "lon": 27.5413662, "tags": {"int_name": "Frunzienskaja", "name": "\u0424\u0440\u0443\u043d\u0437\u0435\u043d\u0441\u043a\u0430\u044f", "name:be": "\u0424\u0440\u0443\u043d\u0437\u0435\u043d\u0441\u043a\u0430\u044f", "name:ru": "\u0424\u0440\u0443\u043d\u0437\u0435\u043d\u0441\u043a\u0430\u044f", "network": "\u041c\u0438\u043d\u0441\u043a\u0438\u0439 \u043c\u0435\u0442\u0440\u043e\u043f\u043e\u043b\u0438\u0442\u0435\u043d", "railway": "subway_entrance"}}, {"type": "node", "id": 209080585, "lat": 53.9056182, "lon": 27.5378863, "tags": {"colour": "red", "int_name": "Frunzienskaja", "name": "\u0424\u0440\u0443\u043d\u0437\u0435\u043d\u0441\u043a\u0430\u044f", "name:be": "\u0424\u0440\u0443\u043d\u0437\u0435\u043d\u0441\u043a\u0430\u044f", "name:ru": "\u0424\u0440\u0443\u043d\u0437\u0435\u043d\u0441\u043a\u0430\u044f", "network": "\u041c\u0438\u043d\u0441\u043a\u0438\u0439 \u043c\u0435\u0442\u0440\u043e\u043f\u043e\u043b\u0438\u0442\u0435\u043d", "railway": "subway_entrance", "wheelchair": "yes"}}, {"type": "node", "id": 209089094, "lat": 53.9097141, "lon": 27.4945835, "tags": {"colour": "red", "int_name": "Pu\u0161kinskaja", "name": "\u041f\u0443\u0448\u043a\u0438\u043d\u0441\u043a\u0430\u044f", "name:be": "\u041f\u0443\u0448\u043a\u0456\u043d\u0441\u043a\u0430\u044f", "name:ru": "\u041f\u0443\u0448\u043a\u0438\u043d\u0441\u043a\u0430\u044f", "network": "\u041c\u0438\u043d\u0441\u043a\u0438\u0439 \u043c\u0435\u0442\u0440\u043e\u043f\u043e\u043b\u0438\u0442\u0435\u043d", "railway": "subway_entrance"}}, {"type": "node", "id": 209089304, "lat": 53.9098388, "lon": 27.4964471, "tags": {"colour": "red", "int_name": "Pu\u0161kinskaja", "name": "\u041f\u0443\u0448\u043a\u0438\u043d\u0441\u043a\u0430\u044f", "name:be": "\u041f\u0443\u0448\u043a\u0456\u043d\u0441\u043a\u0430\u044f", "name:ru": "\u041f\u0443\u0448\u043a\u0438\u043d\u0441\u043a\u0430\u044f", "network": "\u041c\u0438\u043d\u0441\u043a\u0438\u0439 \u043c\u0435\u0442\u0440\u043e\u043f\u043e\u043b\u0438\u0442\u0435\u043d", "railway": "subway_entrance"}}, {"type": "node", "id": 209089438, "lat": 53.9092759, "lon": 27.4946328, "tags": {"colour": "red", "int_name": "Pu\u0161kinskaja", "name": "\u041f\u0443\u0448\u043a\u0438\u043d\u0441\u043a\u0430\u044f", "name:be": "\u041f\u0443\u0448\u043a\u0456\u043d\u0441\u043a\u0430\u044f", "name:ru": "\u041f\u0443\u0448\u043a\u0438\u043d\u0441\u043a\u0430\u044f", "network": "\u041c\u0438\u043d\u0441\u043a\u0438\u0439 \u043c\u0435\u0442\u0440\u043e\u043f\u043e\u043b\u0438\u0442\u0435\u043d", "railway": "subway_entrance"}}, {"type": "node", "id": 209089762, "lat": 53.9094028, "lon": 27.4965318, "tags": {"colour": "red", "int_name": "Pu\u0161kinskaja", "name": "\u041f\u0443\u0448\u043a\u0438\u043d\u0441\u043a\u0430\u044f", "name:be": "\u041f\u0443\u0448\u043a\u0456\u043d\u0441\u043a\u0430\u044f", "name:ru": "\u041f\u0443\u0448\u043a\u0438\u043d\u0441\u043a\u0430\u044f", "network": "\u041c\u0438\u043d\u0441\u043a\u0438\u0439 \u043c\u0435\u0442\u0440\u043e\u043f\u043e\u043b\u0438\u0442\u0435\u043d", "railway": "subway_entrance"}}, {"type": "node", "id": 209089919, "lat": 53.9099629, "lon": 27.4987625, "tags": {"colour": "red", "int_name": "Pu\u0161kinskaja", "name": "\u041f\u0443\u0448\u043a\u0438\u043d\u0441\u043a\u0430\u044f", "name:be": "\u041f\u0443\u0448\u043a\u0456\u043d\u0441\u043a\u0430\u044f", "name:ru": "\u041f\u0443\u0448\u043a\u0438\u043d\u0441\u043a\u0430\u044f", "network": "\u041c\u0438\u043d\u0441\u043a\u0438\u0439 \u043c\u0435\u0442\u0440\u043e\u043f\u043e\u043b\u0438\u0442\u0435\u043d", "railway": "subway_entrance", "wheelchair": "yes"}}, {"type": "node", "id": 209089958, "lat": 53.9095811, "lon": 27.4988725, "tags": {"colour": "red", "int_name": "Pu\u0161kinskaja", "name": "\u041f\u0443\u0448\u043a\u0438\u043d\u0441\u043a\u0430\u044f", "name:be": "\u041f\u0443\u0448\u043a\u0456\u043d\u0441\u043a\u0430\u044f", "name:ru": "\u041f\u0443\u0448\u043a\u0438\u043d\u0441\u043a\u0430\u044f", "network": "\u041c\u0438\u043d\u0441\u043a\u0438\u0439 \u043c\u0435\u0442\u0440\u043e\u043f\u043e\u043b\u0438\u0442\u0435\u043d", "railway": "subway_entrance"}}, {"type": "node", "id": 209091048, "lat": 53.9087959, "lon": 27.4814202, "tags": {"colour": "red", "int_name": "Sparty\u016dnaja", "name": "\u0421\u043f\u043e\u0440\u0442\u0438\u0432\u043d\u0430\u044f", "name:be": "\u0421\u043f\u0430\u0440\u0442\u044b\u045e\u043d\u0430\u044f", "name:ru": "\u0421\u043f\u043e\u0440\u0442\u0438\u0432\u043d\u0430\u044f", "network": "\u041c\u0438\u043d\u0441\u043a\u0438\u0439 \u043c\u0435\u0442\u0440\u043e\u043f\u043e\u043b\u0438\u0442\u0435\u043d", "railway": "subway_entrance"}}, {"type": "node", "id": 209091546, "lat": 53.9083319, "lon": 27.4814984, "tags": {"colour": "red", "int_name": "Sparty\u016dnaja", "name": "\u0421\u043f\u043e\u0440\u0442\u0438\u0432\u043d\u0430\u044f", "name:be": "\u0421\u043f\u0430\u0440\u0442\u044b\u045e\u043d\u0430\u044f", "name:ru": "\u0421\u043f\u043e\u0440\u0442\u0438\u0432\u043d\u0430\u044f", "network": "\u041c\u0438\u043d\u0441\u043a\u0438\u0439 \u043c\u0435\u0442\u0440\u043e\u043f\u043e\u043b\u0438\u0442\u0435\u043d", "railway": "subway_entrance"}}, {"type": "node", "id": 209091547, "lat": 53.9087191, "lon": 27.4803231, "tags": {"colour": "red", "int_name": "Sparty\u016dnaja", "name": "\u0421\u043f\u043e\u0440\u0442\u0438\u0432\u043d\u0430\u044f", "name:be": "\u0421\u043f\u0430\u0440\u0442\u044b\u045e\u043d\u0430\u044f", "name:ru": "\u0421\u043f\u043e\u0440\u0442\u0438\u0432\u043d\u0430\u044f", "network": "\u041c\u0438\u043d\u0441\u043a\u0438\u0439 \u043c\u0435\u0442\u0440\u043e\u043f\u043e\u043b\u0438\u0442\u0435\u043d", "railway": "subway_entrance"}}, {"type": "node", "id": 209091702, "lat": 53.908275, "lon": 27.4804141, "tags": {"colour": "red", "int_name": "Sparty\u016dnaja", "name": "\u0421\u043f\u043e\u0440\u0442\u0438\u0432\u043d\u0430\u044f", "name:be": "\u0421\u043f\u0430\u0440\u0442\u044b\u045e\u043d\u0430\u044f", "name:ru": "\u0421\u043f\u043e\u0440\u0442\u0438\u0432\u043d\u0430\u044f", "network": "\u041c\u0438\u043d\u0441\u043a\u0438\u0439 \u043c\u0435\u0442\u0440\u043e\u043f\u043e\u043b\u0438\u0442\u0435\u043d", "railway": "subway_entrance", "wheelchair": "yes"}}, {"type": "node", "id": 209159738, "lat": 53.9060383, "lon": 27.4549693, "tags": {"colour": "red", "int_name": "Kunca\u016d\u0161\u010dyna", "name": "\u041a\u0443\u043d\u0446\u0435\u0432\u0449\u0438\u043d\u0430", "name:be": "\u041a\u0443\u043d\u0446\u0430\u045e\u0448\u0447\u044b\u043d\u0430", "name:ru": "\u041a\u0443\u043d\u0446\u0435\u0432\u0449\u0438\u043d\u0430", "network": "\u041c\u0438\u043d\u0441\u043a\u0438\u0439 \u043c\u0435\u0442\u0440\u043e\u043f\u043e\u043b\u0438\u0442\u0435\u043d", "railway": "subway_entrance", "wheelchair": "yes"}}, {"type": "node", "id": 209161685, "lat": 53.9065308, "lon": 27.4365912, "tags": {"colour": "red", "int_name": "Kamiennaja Horka", "name": "\u041a\u0430\u043c\u0435\u043d\u043d\u0430\u044f \u0413\u043e\u0440\u043a\u0430", "name:be": "\u041a\u0430\u043c\u0435\u043d\u043d\u0430\u044f \u0413\u043e\u0440\u043a\u0430", "name:ru": "\u041a\u0430\u043c\u0435\u043d\u043d\u0430\u044f \u0413\u043e\u0440\u043a\u0430", "network": "\u041c\u0438\u043d\u0441\u043a\u0438\u0439 \u043c\u0435\u0442\u0440\u043e\u043f\u043e\u043b\u0438\u0442\u0435\u043d", "railway": "subway_entrance", "wheelchair": "no"}}, {"type": "node", "id": 209161853, "lat": 53.9063946, "lon": 27.4354691, "tags": {"colour": "red", "int_name": "Kamiennaja Horka", "name": "\u041a\u0430\u043c\u0435\u043d\u043d\u0430\u044f \u0413\u043e\u0440\u043a\u0430", "name:be": "\u041a\u0430\u043c\u0435\u043d\u043d\u0430\u044f \u0413\u043e\u0440\u043a\u0430", "name:ru": "\u041a\u0430\u043c\u0435\u043d\u043d\u0430\u044f \u0413\u043e\u0440\u043a\u0430", "network": "\u041c\u0438\u043d\u0441\u043a\u0438\u0439 \u043c\u0435\u0442\u0440\u043e\u043f\u043e\u043b\u0438\u0442\u0435\u043d", "railway": "subway_entrance", "wheelchair": "yes"}}, {"type": "node", "id": 209161866, "lat": 53.9066075, "lon": 27.4349802, "tags": {"colour": "red", "int_name": "Kamiennaja Horka", "name": "\u041a\u0430\u043c\u0435\u043d\u043d\u0430\u044f \u0413\u043e\u0440\u043a\u0430", "name:be": "\u041a\u0430\u043c\u0435\u043d\u043d\u0430\u044f \u0413\u043e\u0440\u043a\u0430", "name:ru": "\u041a\u0430\u043c\u0435\u043d\u043d\u0430\u044f \u0413\u043e\u0440\u043a\u0430", "network": "\u041c\u0438\u043d\u0441\u043a\u0438\u0439 \u043c\u0435\u0442\u0440\u043e\u043f\u043e\u043b\u0438\u0442\u0435\u043d", "railway": "subway_entrance", "wheelchair": "yes"}}, {"type": "node", "id": 209162167, "lat": 53.907246, "lon": 27.436679, "tags": {"colour": "red", "int_name": "Kamiennaja Horka", "name": "\u041a\u0430\u043c\u0435\u043d\u043d\u0430\u044f \u0413\u043e\u0440\u043a\u0430", "name:be": "\u041a\u0430\u043c\u0435\u043d\u043d\u0430\u044f \u0413\u043e\u0440\u043a\u0430", "name:ru": "\u041a\u0430\u043c\u0435\u043d\u043d\u0430\u044f \u0413\u043e\u0440\u043a\u0430", "network": "\u041c\u0438\u043d\u0441\u043a\u0438\u0439 \u043c\u0435\u0442\u0440\u043e\u043f\u043e\u043b\u0438\u0442\u0435\u043d", "railway": "subway_entrance"}}, {"type": "node", "id": 209165307, "lat": 53.9059746, "lon": 27.4533365, "tags": {"colour": "red", "int_name": "Kunca\u016d\u0161\u010dyna", "name": "\u041a\u0443\u043d\u0446\u0435\u0432\u0449\u0438\u043d\u0430", "name:be": "\u041a\u0443\u043d\u0446\u0430\u045e\u0448\u0447\u044b\u043d\u0430", "name:ru": "\u041a\u0443\u043d\u0446\u0435\u0432\u0449\u0438\u043d\u0430", "network": "\u041c\u0438\u043d\u0441\u043a\u0438\u0439 \u043c\u0435\u0442\u0440\u043e\u043f\u043e\u043b\u0438\u0442\u0435\u043d", "railway": "subway_entrance"}}, {"type": "node", "id": 209165680, "lat": 53.9064629, "lon": 27.4532441, "tags": {"colour": "red", "int_name": "Kunca\u016d\u0161\u010dyna", "name": "\u041a\u0443\u043d\u0446\u0435\u0432\u0449\u0438\u043d\u0430", "name:be": "\u041a\u0443\u043d\u0446\u0430\u045e\u0448\u0447\u044b\u043d\u0430", "name:ru": "\u041a\u0443\u043d\u0446\u0435\u0432\u0449\u0438\u043d\u0430", "network": "\u041c\u0438\u043d\u0441\u043a\u0438\u0439 \u043c\u0435\u0442\u0440\u043e\u043f\u043e\u043b\u0438\u0442\u0435\u043d", "railway": "subway_entrance", "wheelchair": "yes"}}, {"type": "node", "id": 209166239, "lat": 53.9065704, "lon": 27.4547839, "tags": {"colour": "red", "int_name": "Kunca\u016d\u0161\u010dyna", "name": "\u041a\u0443\u043d\u0446\u0435\u0432\u0449\u0438\u043d\u0430", "name:be": "\u041a\u0443\u043d\u0446\u0430\u045e\u0448\u0447\u044b\u043d\u0430", "name:ru": "\u041a\u0443\u043d\u0446\u0435\u0432\u0449\u0438\u043d\u0430", "network": "\u041c\u0438\u043d\u0441\u043a\u0438\u0439 \u043c\u0435\u0442\u0440\u043e\u043f\u043e\u043b\u0438\u0442\u0435\u043d", "railway": "subway_entrance"}}, {"type": "node", "id": 248520232, "lat": 53.8748022, "lon": 27.6304432, "tags": {"colour": "red", "int_name": "Partyzanskaja", "name": "\u041f\u0430\u0440\u0442\u0438\u0437\u0430\u043d\u0441\u043a\u0430\u044f", "name:be": "\u041f\u0430\u0440\u0442\u044b\u0437\u0430\u043d\u0441\u043a\u0430\u044f", "name:ru": "\u041f\u0430\u0440\u0442\u0438\u0437\u0430\u043d\u0441\u043a\u0430\u044f", "network": "\u041c\u0438\u043d\u0441\u043a\u0438\u0439 \u043c\u0435\u0442\u0440\u043e\u043f\u043e\u043b\u0438\u0442\u0435\u043d", "railway": "subway_entrance"}}, {"type": "node", "id": 248520459, "lat": 53.889471, "lon": 27.615325, "tags": {"colour": "red", "int_name": "Traktarny zavod", "name": "\u0422\u0440\u0430\u043a\u0442\u0430\u0440\u043d\u044b \u0437\u0430\u0432\u043e\u0434", "name:be": "\u0422\u0440\u0430\u043a\u0442\u0430\u0440\u043d\u044b \u0437\u0430\u0432\u043e\u0434", "name:ru": "\u0422\u0440\u0430\u043a\u0442\u043e\u0440\u043d\u044b\u0439 \u0437\u0430\u0432\u043e\u0434", "network": "\u041c\u0438\u043d\u0441\u043a\u0438\u0439 \u043c\u0435\u0442\u0440\u043e\u043f\u043e\u043b\u0438\u0442\u0435\u043d", "railway": "subway_entrance"}}, {"type": "node", "id": 248520460, "lat": 53.8896857, "lon": 27.6155047, "tags": {"colour": "red", "int_name": "Traktarny zavod", "name": "\u0422\u0440\u0430\u043a\u0442\u0430\u0440\u043d\u044b \u0437\u0430\u0432\u043e\u0434", "name:be": "\u0422\u0440\u0430\u043a\u0442\u0430\u0440\u043d\u044b \u0437\u0430\u0432\u043e\u0434", "name:ru": "\u0422\u0440\u0430\u043a\u0442\u043e\u0440\u043d\u044b\u0439 \u0437\u0430\u0432\u043e\u0434", "network": "\u041c\u0438\u043d\u0441\u043a\u0438\u0439 \u043c\u0435\u0442\u0440\u043e\u043f\u043e\u043b\u0438\u0442\u0435\u043d", "railway": "subway_entrance"}}, {"type": "node", "id": 248521117, "lat": 53.8921015, "lon": 27.5485649, "tags": {"colour": "blue", "name": "\u041f\u043b\u043e\u0448\u0447\u0430 \u041b\u0435\u043d\u0456\u043d\u0430", "name:be": "\u041f\u043b\u043e\u0448\u0447\u0430 \u041b\u0435\u043d\u0456\u043d\u0430", "name:ru": "\u041f\u043b\u043e\u0449\u0430\u0434\u044c \u041b\u0435\u043d\u0438\u043d\u0430", "network": "\u041c\u0438\u043d\u0441\u043a\u0438\u0439 \u043c\u0435\u0442\u0440\u043e\u043f\u043e\u043b\u0438\u0442\u0435\u043d", "network:be": "\u041c\u0456\u043d\u0441\u043a\u0456 \u043c\u0435\u0442\u0440\u0430\u043f\u0430\u043b\u0456\u0442\u044d\u043d", "network:ru": "\u041c\u0438\u043d\u0441\u043a\u0438\u0439 \u043c\u0435\u0442\u0440\u043e\u043f\u043e\u043b\u0438\u0442\u0435\u043d", "railway": "subway_entrance"}}, {"type": "node", "id": 248521388, "lat": 53.9384328, "lon": 27.666508, "tags": {"colour": "blue", "int_name": "Barysa\u016dski trakt", "name": "\u0411\u0430\u0440\u044b\u0441\u0430\u045e\u0441\u043a\u0456 \u0442\u0440\u0430\u043a\u0442", "name:be": "\u0411\u0430\u0440\u044b\u0441\u0430\u045e\u0441\u043a\u0456 \u0442\u0440\u0430\u043a\u0442", "name:ru": "\u0411\u043e\u0440\u0438\u0441\u043e\u0432\u0441\u043a\u0438\u0439 \u0442\u0440\u0430\u043a\u0442", "network": "\u041c\u0438\u043d\u0441\u043a\u0438\u0439 \u043c\u0435\u0442\u0440\u043e\u043f\u043e\u043b\u0438\u0442\u0435\u043d", "railway": "subway_entrance"}}, {"type": "node", "id": 250051780, "lat": 53.8681932, "lon": 27.6502176, "tags": {"colour": "red", "int_name": "A\u016dtazavodskaja", "name": "\u0410\u0432\u0442\u043e\u0437\u0430\u0432\u043e\u0434\u0441\u043a\u0430\u044f", "name:be": "\u0410\u045e\u0442\u0430\u0437\u0430\u0432\u043e\u0434\u0441\u043a\u0430\u044f", "name:ru": "\u0410\u0432\u0442\u043e\u0437\u0430\u0432\u043e\u0434\u0441\u043a\u0430\u044f", "network": "\u041c\u0438\u043d\u0441\u043a\u0438\u0439 \u043c\u0435\u0442\u0440\u043e\u043f\u043e\u043b\u0438\u0442\u0435\u043d", "railway": "subway_entrance"}}, {"type": "node", "id": 253444447, "lat": 53.8687912, "lon": 27.6511076, "tags": {"colour": "red", "int_name": "A\u016dtazavodskaja", "name": "\u0410\u0432\u0442\u043e\u0437\u0430\u0432\u043e\u0434\u0441\u043a\u0430\u044f", "name:be": "\u0410\u045e\u0442\u0430\u0437\u0430\u0432\u043e\u0434\u0441\u043a\u0430\u044f", "name:ru": "\u0410\u0432\u0442\u043e\u0437\u0430\u0432\u043e\u0434\u0441\u043a\u0430\u044f", "network": "\u041c\u0438\u043d\u0441\u043a\u0438\u0439 \u043c\u0435\u0442\u0440\u043e\u043f\u043e\u043b\u0438\u0442\u0435\u043d", "railway": "subway_entrance"}}, {"type": "node", "id": 260171202, "lat": 53.8689548, "lon": 27.6472615, "tags": {"colour": "red", "int_name": "A\u016dtazavodskaja", "name": "\u0410\u0432\u0442\u043e\u0437\u0430\u0432\u043e\u0434\u0441\u043a\u0430\u044f", "name:be": "\u0410\u045e\u0442\u0430\u0437\u0430\u0432\u043e\u0434\u0441\u043a\u0430\u044f", "name:ru": "\u0410\u0432\u0442\u043e\u0437\u0430\u0432\u043e\u0434\u0441\u043a\u0430\u044f", "network": "\u041c\u0438\u043d\u0441\u043a\u0438\u0439 \u043c\u0435\u0442\u0440\u043e\u043f\u043e\u043b\u0438\u0442\u0435\u043d", "railway": "subway_entrance"}}, {"type": "node", "id": 260171994, "lat": 53.8684379, "lon": 27.6498133, "tags": {"colour": "red", "int_name": "A\u016dtazavodskaja", "name": "\u0410\u0432\u0442\u043e\u0437\u0430\u0432\u043e\u0434\u0441\u043a\u0430\u044f", "name:be": "\u0410\u045e\u0442\u0430\u0437\u0430\u0432\u043e\u0434\u0441\u043a\u0430\u044f", "name:ru": "\u0410\u0432\u0442\u043e\u0437\u0430\u0432\u043e\u0434\u0441\u043a\u0430\u044f", "network": "\u041c\u0438\u043d\u0441\u043a\u0438\u0439 \u043c\u0435\u0442\u0440\u043e\u043f\u043e\u043b\u0438\u0442\u0435\u043d", "railway": "subway_entrance"}}, {"type": "node", "id": 260174003, "lat": 53.869779, "lon": 27.647935, "tags": {"colour": "red", "int_name": "A\u016dtazavodskaja", "name": "\u0410\u0432\u0442\u043e\u0437\u0430\u0432\u043e\u0434\u0441\u043a\u0430\u044f", "name:be": "\u0410\u045e\u0442\u0430\u0437\u0430\u0432\u043e\u0434\u0441\u043a\u0430\u044f", "name:ru": "\u0410\u0432\u0442\u043e\u0437\u0430\u0432\u043e\u0434\u0441\u043a\u0430\u044f", "network": "\u041c\u0438\u043d\u0441\u043a\u0438\u0439 \u043c\u0435\u0442\u0440\u043e\u043f\u043e\u043b\u0438\u0442\u0435\u043d", "railway": "subway_entrance"}}, {"type": "node", "id": 260174762, "lat": 53.8698161, "lon": 27.646628, "tags": {"colour": "red", "int_name": "A\u016dtazavodskaja", "name": "\u0410\u0432\u0442\u043e\u0437\u0430\u0432\u043e\u0434\u0441\u043a\u0430\u044f", "name:be": "\u0410\u045e\u0442\u0430\u0437\u0430\u0432\u043e\u0434\u0441\u043a\u0430\u044f", "name:ru": "\u0410\u0432\u0442\u043e\u0437\u0430\u0432\u043e\u0434\u0441\u043a\u0430\u044f", "network": "\u041c\u0438\u043d\u0441\u043a\u0438\u0439 \u043c\u0435\u0442\u0440\u043e\u043f\u043e\u043b\u0438\u0442\u0435\u043d", "railway": "subway_entrance"}}, {"type": "node", "id": 263061831, "lat": 53.9074804, "lon": 27.4363144, "tags": {"colour": "red", "int_name": "Kamiennaja Horka", "name": "\u041a\u0430\u043c\u0435\u043d\u043d\u0430\u044f \u0413\u043e\u0440\u043a\u0430", "name:be": "\u041a\u0430\u043c\u0435\u043d\u043d\u0430\u044f \u0413\u043e\u0440\u043a\u0430", "name:ru": "\u041a\u0430\u043c\u0435\u043d\u043d\u0430\u044f \u0413\u043e\u0440\u043a\u0430", "network": "\u041c\u0438\u043d\u0441\u043a\u0438\u0439 \u043c\u0435\u0442\u0440\u043e\u043f\u043e\u043b\u0438\u0442\u0435\u043d", "railway": "subway_entrance", "wheelchair": "yes"}}, {"type": "node", "id": 264939369, "lat": 53.8693998, "lon": 27.6463939, "tags": {"colour": "red", "int_name": "A\u016dtazavodskaja", "name": "\u0410\u0432\u0442\u043e\u0437\u0430\u0432\u043e\u0434\u0441\u043a\u0430\u044f", "name:be": "\u0410\u045e\u0442\u0430\u0437\u0430\u0432\u043e\u0434\u0441\u043a\u0430\u044f", "name:ru": "\u0410\u0432\u0442\u043e\u0437\u0430\u0432\u043e\u0434\u0441\u043a\u0430\u044f", "network": "\u041c\u0438\u043d\u0441\u043a\u0438\u0439 \u043c\u0435\u0442\u0440\u043e\u043f\u043e\u043b\u0438\u0442\u0435\u043d", "railway": "subway_entrance"}}, {"type": "node", "id": 264942419, "lat": 53.8696472, "lon": 27.6479085, "tags": {"colour": "red", "int_name": "A\u016dtazavodskaja", "name": "\u0410\u0432\u0442\u043e\u0437\u0430\u0432\u043e\u0434\u0441\u043a\u0430\u044f", "name:be": "\u0410\u045e\u0442\u0430\u0437\u0430\u0432\u043e\u0434\u0441\u043a\u0430\u044f", "name:ru": "\u0410\u0432\u0442\u043e\u0437\u0430\u0432\u043e\u0434\u0441\u043a\u0430\u044f", "network": "\u041c\u0438\u043d\u0441\u043a\u0438\u0439 \u043c\u0435\u0442\u0440\u043e\u043f\u043e\u043b\u0438\u0442\u0435\u043d", "railway": "subway_entrance"}}, {"type": "node", "id": 264942905, "lat": 53.8690516, "lon": 27.64743, "tags": {"colour": "red", "int_name": "A\u016dtazavodskaja", "name": "\u0410\u0432\u0442\u043e\u0437\u0430\u0432\u043e\u0434\u0441\u043a\u0430\u044f", "name:be": "\u0410\u045e\u0442\u0430\u0437\u0430\u0432\u043e\u0434\u0441\u043a\u0430\u044f", "name:ru": "\u0410\u0432\u0442\u043e\u0437\u0430\u0432\u043e\u0434\u0441\u043a\u0430\u044f", "network": "\u041c\u0438\u043d\u0441\u043a\u0438\u0439 \u043c\u0435\u0442\u0440\u043e\u043f\u043e\u043b\u0438\u0442\u0435\u043d", "railway": "subway_entrance"}}, {"type": "node", "id": 265517660, "lat": 53.8623226, "lon": 27.6742683, "tags": {"colour": "red", "int_name": "Mahilio\u016dskaja", "name": "\u041c\u043e\u0433\u0438\u043b\u0451\u0432\u0441\u043a\u0430\u044f", "name:be": "\u041c\u0430\u0433\u0456\u043b\u0451\u045e\u0441\u043a\u0430\u044f", "name:ru": "\u041c\u043e\u0433\u0438\u043b\u0451\u0432\u0441\u043a\u0430\u044f", "network": "\u041c\u0438\u043d\u0441\u043a\u0438\u0439 \u043c\u0435\u0442\u0440\u043e\u043f\u043e\u043b\u0438\u0442\u0435\u043d", "railway": "subway_entrance"}}, {"type": "node", "id": 277477191, "lat": 53.9156025, "lon": 27.5832478, "tags": {"colour": "blue", "int_name": "plo\u0161\u010da Jakuba Kolasa", "name": "\u041f\u043b\u043e\u0449\u0430\u0434\u044c \u042f\u043a\u0443\u0431\u0430 \u041a\u043e\u043b\u0430\u0441\u0430", "name:be": "\u041f\u043b\u043e\u0448\u0447\u0430 \u042f\u043a\u0443\u0431\u0430 \u041a\u043e\u043b\u0430\u0441\u0430", "name:ru": "\u041f\u043b\u043e\u0449\u0430\u0434\u044c \u042f\u043a\u0443\u0431\u0430 \u041a\u043e\u043b\u0430\u0441\u0430", "network": "\u041c\u0438\u043d\u0441\u043a\u0438\u0439 \u043c\u0435\u0442\u0440\u043e\u043f\u043e\u043b\u0438\u0442\u0435\u043d", "railway": "subway_entrance", "wheelchair": "yes"}}, {"type": "node", "id": 277477198, "lat": 53.9152554, "lon": 27.5837584, "tags": {"colour": "blue", "int_name": "plo\u0161\u010da Jakuba Kolasa", "name": "\u041f\u043b\u043e\u0449\u0430\u0434\u044c \u042f\u043a\u0443\u0431\u0430 \u041a\u043e\u043b\u0430\u0441\u0430", "name:be": "\u041f\u043b\u043e\u0448\u0447\u0430 \u042f\u043a\u0443\u0431\u0430 \u041a\u043e\u043b\u0430\u0441\u0430", "name:en": "Jakuba Kolasa square", "name:ru": "\u041f\u043b\u043e\u0449\u0430\u0434\u044c \u042f\u043a\u0443\u0431\u0430 \u041a\u043e\u043b\u0430\u0441\u0430", "network": "\u041c\u0438\u043d\u0441\u043a\u0438\u0439 \u043c\u0435\u0442\u0440\u043e\u043f\u043e\u043b\u0438\u0442\u0435\u043d", "railway": "subway_entrance", "wheelchair": "no"}}, {"type": "node", "id": 278081351, "lat": 53.9351528, "lon": 27.652651, "tags": {"colour": "blue", "int_name": "Uschod", "name": "\u0423\u0441\u0445\u043e\u0434", "name:be": "\u0423\u0441\u0445\u043e\u0434", "name:ru": "\u0412\u043e\u0441\u0442\u043e\u043a", "network": "\u041c\u0438\u043d\u0441\u043a\u0438\u0439 \u043c\u0435\u0442\u0440\u043e\u043f\u043e\u043b\u0438\u0442\u0435\u043d", "railway": "subway_entrance", "ref": "4-2", "wheelchair": "no"}}, {"type": "node", "id": 278081502, "lat": 53.9344752, "lon": 27.650147, "tags": {"colour": "blue", "int_name": "Uschod", "name": "\u0423\u0441\u0445\u043e\u0434", "name:be": "\u0423\u0441\u0445\u043e\u0434", "name:ru": "\u0412\u043e\u0441\u0442\u043e\u043a", "network": "\u041c\u0438\u043d\u0441\u043a\u0438\u0439 \u043c\u0435\u0442\u0440\u043e\u043f\u043e\u043b\u0438\u0442\u0435\u043d", "railway": "subway_entrance", "ref": "2-2", "wheelchair": "yes"}}, {"type": "node", "id": 278213712, "lat": 53.9239546, "lon": 27.6119611, "tags": {"colour": "blue", "name": "\u041f\u0430\u0440\u043a \u0427\u0430\u043b\u044e\u0441\u043a\u0456\u043d\u0446\u0430\u045e", "name:be": "\u041f\u0430\u0440\u043a \u0427\u0430\u043b\u044e\u0441\u043a\u0456\u043d\u0446\u0430\u045e", "name:ru": "\u041f\u0430\u0440\u043a \u0427\u0435\u043b\u044e\u0441\u043a\u0438\u043d\u0446\u0435\u0432", "network": "\u041c\u0438\u043d\u0441\u043a\u0438\u0439 \u043c\u0435\u0442\u0440\u043e\u043f\u043e\u043b\u0438\u0442\u0435\u043d", "railway": "subway_entrance", "wheelchair": "limited"}}, {"type": "node", "id": 278213891, "lat": 53.9247634, "lon": 27.6148441, "tags": {"colour": "blue", "name": "\u041f\u0430\u0440\u043a \u0427\u0430\u043b\u044e\u0441\u043a\u0456\u043d\u0446\u0430\u045e", "name:be": "\u041f\u0430\u0440\u043a \u0427\u0430\u043b\u044e\u0441\u043a\u0456\u043d\u0446\u0430\u045e", "name:ru": "\u041f\u0430\u0440\u043a \u0427\u0435\u043b\u044e\u0441\u043a\u0438\u043d\u0446\u0435\u0432", "network": "\u041c\u0438\u043d\u0441\u043a\u0438\u0439 \u043c\u0435\u0442\u0440\u043e\u043f\u043e\u043b\u0438\u0442\u0435\u043d", "railway": "subway_entrance", "wheelchair": "no"}}, {"type": "node", "id": 278663404, "lat": 53.9001308, "lon": 27.5626368, "tags": {"colour": "red", "int_name": "Kupala\u016dskaja", "name": "\u041a\u0443\u043f\u0430\u043b\u0430\u045e\u0441\u043a\u0430\u044f", "name:be": "\u041a\u0443\u043f\u0430\u043b\u0430\u045e\u0441\u043a\u0430\u044f", "name:en": "Kupala\u016dskaja", "name:ru": "\u041a\u0443\u043f\u0430\u043b\u043e\u0432\u0441\u043a\u0430\u044f", "network": "\u041c\u0438\u043d\u0441\u043a\u0438\u0439 \u043c\u0435\u0442\u0440\u043e\u043f\u043e\u043b\u0438\u0442\u0435\u043d", "railway": "subway_entrance"}}, {"type": "node", "id": 278663450, "lat": 53.9019074, "lon": 27.5607012, "tags": {"int_name": "Kastry\u010dnickaja/Kupala\u016dskaja", "name": "\u041a\u0430\u0441\u0442\u0440\u044b\u0447\u043d\u0456\u0446\u043a\u0430\u044f/\u041a\u0443\u043f\u0430\u043b\u0430\u045e\u0441\u043a\u0430\u044f", "name:be": "\u041a\u0430\u0441\u0442\u0440\u044b\u0447\u043d\u0456\u0446\u043a\u0430\u044f/\u041a\u0443\u043f\u0430\u043b\u0430\u045e\u0441\u043a\u0430\u044f", "name:ru": "\u041e\u043a\u0442\u044f\u0431\u0440\u044c\u0441\u043a\u0430\u044f/\u041a\u0443\u043f\u0430\u043b\u043e\u0432\u0441\u043a\u0430\u044f", "network": "\u041c\u0438\u043d\u0441\u043a\u0438\u0439 \u043c\u0435\u0442\u0440\u043e\u043f\u043e\u043b\u0438\u0442\u0435\u043d", "railway": "subway_entrance", "ref": "2-3"}}, {"type": "node", "id": 279249302, "lat": 53.9099807, "lon": 27.4949421, "tags": {"colour": "red", "int_name": "Pu\u0161kinskaja", "name": "\u041f\u0443\u0448\u043a\u0438\u043d\u0441\u043a\u0430\u044f", "name:be": "\u041f\u0443\u0448\u043a\u0456\u043d\u0441\u043a\u0430\u044f", "name:ru": "\u041f\u0443\u0448\u043a\u0438\u043d\u0441\u043a\u0430\u044f", "network": "\u041c\u0438\u043d\u0441\u043a\u0438\u0439 \u043c\u0435\u0442\u0440\u043e\u043f\u043e\u043b\u0438\u0442\u0435\u043d", "railway": "subway_entrance"}}, {"type": "node", "id": 279249311, "lat": 53.9100628, "lon": 27.495982, "tags": {"colour": "red", "int_name": "Pu\u0161kinskaja", "name": "\u041f\u0443\u0448\u043a\u0438\u043d\u0441\u043a\u0430\u044f", "name:be": "\u041f\u0443\u0448\u043a\u0456\u043d\u0441\u043a\u0430\u044f", "name:ru": "\u041f\u0443\u0448\u043a\u0438\u043d\u0441\u043a\u0430\u044f", "network": "\u041c\u0438\u043d\u0441\u043a\u0438\u0439 \u043c\u0435\u0442\u0440\u043e\u043f\u043e\u043b\u0438\u0442\u0435\u043d", "railway": "subway_entrance"}}, {"type": "node", "id": 279249328, "lat": 53.9091261, "lon": 27.4961614, "tags": {"colour": "red", "int_name": "Pu\u0161kinskaja", "name": "\u041f\u0443\u0448\u043a\u0438\u043d\u0441\u043a\u0430\u044f", "name:be": "\u041f\u0443\u0448\u043a\u0456\u043d\u0441\u043a\u0430\u044f", "name:ru": "\u041f\u0443\u0448\u043a\u0438\u043d\u0441\u043a\u0430\u044f", "network": "\u041c\u0438\u043d\u0441\u043a\u0438\u0439 \u043c\u0435\u0442\u0440\u043e\u043f\u043e\u043b\u0438\u0442\u0435\u043d", "railway": "subway_entrance"}}, {"type": "node", "id": 279249426, "lat": 53.9090534, "lon": 27.4950881, "tags": {"colour": "red", "int_name": "Pu\u0161kinskaja", "name": "\u041f\u0443\u0448\u043a\u0438\u043d\u0441\u043a\u0430\u044f", "name:be": "\u041f\u0443\u0448\u043a\u0456\u043d\u0441\u043a\u0430\u044f", "name:ru": "\u041f\u0443\u0448\u043a\u0438\u043d\u0441\u043a\u0430\u044f", "network": "\u041c\u0438\u043d\u0441\u043a\u0438\u0439 \u043c\u0435\u0442\u0440\u043e\u043f\u043e\u043b\u0438\u0442\u0435\u043d", "railway": "subway_entrance"}}, {"type": "node", "id": 279249805, "lat": 53.9095408, "lon": 27.4982673, "tags": {"colour": "red", "int_name": "Pu\u0161kinskaja", "name": "\u041f\u0443\u0448\u043a\u0438\u043d\u0441\u043a\u0430\u044f", "name:be": "\u041f\u0443\u0448\u043a\u0456\u043d\u0441\u043a\u0430\u044f", "name:ru": "\u041f\u0443\u0448\u043a\u0438\u043d\u0441\u043a\u0430\u044f", "network": "\u041c\u0438\u043d\u0441\u043a\u0438\u0439 \u043c\u0435\u0442\u0440\u043e\u043f\u043e\u043b\u0438\u0442\u0435\u043d", "railway": "subway_entrance"}}, {"type": "node", "id": 279249807, "lat": 53.9099139, "lon": 27.4981359, "tags": {"colour": "red", "int_name": "Pu\u0161kinskaja", "name": "\u041f\u0443\u0448\u043a\u0438\u043d\u0441\u043a\u0430\u044f", "name:be": "\u041f\u0443\u0448\u043a\u0456\u043d\u0441\u043a\u0430\u044f", "name:ru": "\u041f\u0443\u0448\u043a\u0438\u043d\u0441\u043a\u0430\u044f", "network": "\u041c\u0438\u043d\u0441\u043a\u0438\u0439 \u043c\u0435\u0442\u0440\u043e\u043f\u043e\u043b\u0438\u0442\u0435\u043d", "railway": "subway_entrance"}}, {"type": "node", "id": 280262015, "lat": 53.9063408, "lon": 27.4361765, "tags": {"colour": "red", "int_name": "Kamiennaja Horka", "name": "\u041a\u0430\u043c\u0435\u043d\u043d\u0430\u044f \u0413\u043e\u0440\u043a\u0430", "name:be": "\u041a\u0430\u043c\u0435\u043d\u043d\u0430\u044f \u0413\u043e\u0440\u043a\u0430", "name:ru": "\u041a\u0430\u043c\u0435\u043d\u043d\u0430\u044f \u0413\u043e\u0440\u043a\u0430", "network": "\u041c\u0438\u043d\u0441\u043a\u0438\u0439 \u043c\u0435\u0442\u0440\u043e\u043f\u043e\u043b\u0438\u0442\u0435\u043d", "railway": "subway_entrance", "wheelchair": "yes"}}, {"type": "node", "id": 280695439, "lat": 53.9061488, "lon": 27.5535343, "tags": {"colour": "red", "int_name": "Niamiha", "name": "\u041d\u0435\u043c\u0438\u0433\u0430", "name:be": "\u041d\u044f\u043c\u0456\u0433\u0430", "name:ru": "\u041d\u0435\u043c\u0438\u0433\u0430", "network": "\u041c\u0438\u043d\u0441\u043a\u0438\u0439 \u043c\u0435\u0442\u0440\u043e\u043f\u043e\u043b\u0438\u0442\u0435\u043d", "railway": "subway_entrance"}}, {"type": "node", "id": 366240786, "lat": 53.9244286, "lon": 27.61511, "tags": {"colour": "blue", "name": "\u041f\u0430\u0440\u043a \u0427\u0430\u043b\u044e\u0441\u043a\u0456\u043d\u0446\u0430\u045e", "name:be": "\u041f\u0430\u0440\u043a \u0427\u0430\u043b\u044e\u0441\u043a\u0456\u043d\u0446\u0430\u045e", "name:ru": "\u041f\u0430\u0440\u043a \u0427\u0435\u043b\u044e\u0441\u043a\u0438\u043d\u0446\u0435\u0432", "network": "\u041c\u0438\u043d\u0441\u043a\u0438\u0439 \u043c\u0435\u0442\u0440\u043e\u043f\u043e\u043b\u0438\u0442\u0435\u043d", "railway": "subway_entrance", "wheelchair": "no"}}, {"type": "node", "id": 373147309, "lat": 53.906557, "lon": 27.4543203, "tags": {"colour": "red", "int_name": "Kunca\u016d\u0161\u010dyna", "name": "\u041a\u0443\u043d\u0446\u0435\u0432\u0449\u0438\u043d\u0430", "name:be": "\u041a\u0443\u043d\u0446\u0430\u045e\u0448\u0447\u044b\u043d\u0430", "name:ru": "\u041a\u0443\u043d\u0446\u0435\u0432\u0449\u0438\u043d\u0430", "network": "\u041c\u0438\u043d\u0441\u043a\u0438\u0439 \u043c\u0435\u0442\u0440\u043e\u043f\u043e\u043b\u0438\u0442\u0435\u043d", "railway": "subway_entrance", "wheelchair": "no"}}, {"type": "node", "id": 438131821, "lat": 53.9242741, "lon": 27.6145096, "tags": {"colour": "blue", "name": "\u041f\u0430\u0440\u043a \u0427\u0430\u043b\u044e\u0441\u043a\u0456\u043d\u0446\u0430\u045e", "name:be": "\u041f\u0430\u0440\u043a \u0427\u0430\u043b\u044e\u0441\u043a\u0456\u043d\u0446\u0430\u045e", "name:ru": "\u041f\u0430\u0440\u043a \u0427\u0435\u043b\u044e\u0441\u043a\u0438\u043d\u0446\u0435\u0432", "network": "\u041c\u0438\u043d\u0441\u043a\u0438\u0439 \u043c\u0435\u0442\u0440\u043e\u043f\u043e\u043b\u0438\u0442\u0435\u043d", "railway": "subway_entrance", "wheelchair": "yes"}}, {"type": "node", "id": 455998325, "lat": 53.9159688, "lon": 27.5817371, "tags": {"colour": "blue", "int_name": "plo\u0161\u010da Jakuba Kolasa", "name": "\u041f\u043b\u043e\u0449\u0430\u0434\u044c \u042f\u043a\u0443\u0431\u0430 \u041a\u043e\u043b\u0430\u0441\u0430", "name:be": "\u041f\u043b\u043e\u0448\u0447\u0430 \u042f\u043a\u0443\u0431\u0430 \u041a\u043e\u043b\u0430\u0441\u0430", "name:ru": "\u041f\u043b\u043e\u0449\u0430\u0434\u044c \u042f\u043a\u0443\u0431\u0430 \u041a\u043e\u043b\u0430\u0441\u0430", "network": "\u041c\u0438\u043d\u0441\u043a\u0438\u0439 \u043c\u0435\u0442\u0440\u043e\u043f\u043e\u043b\u0438\u0442\u0435\u043d", "railway": "subway_entrance", "wheelchair": "no"}}, {"type": "node", "id": 455998327, "lat": 53.9161183, "lon": 27.5819813, "tags": {"colour": "blue", "int_name": "plo\u0161\u010da Jakuba Kolasa", "name": "\u041f\u043b\u043e\u0449\u0430\u0434\u044c \u042f\u043a\u0443\u0431\u0430 \u041a\u043e\u043b\u0430\u0441\u0430", "name:be": "\u041f\u043b\u043e\u0448\u0447\u0430 \u042f\u043a\u0443\u0431\u0430 \u041a\u043e\u043b\u0430\u0441\u0430", "name:ru": "\u041f\u043b\u043e\u0449\u0430\u0434\u044c \u042f\u043a\u0443\u0431\u0430 \u041a\u043e\u043b\u0430\u0441\u0430", "network": "\u041c\u0438\u043d\u0441\u043a\u0438\u0439 \u043c\u0435\u0442\u0440\u043e\u043f\u043e\u043b\u0438\u0442\u0435\u043d", "railway": "subway_entrance", "wheelchair": "no"}}, {"type": "node", "id": 456000846, "lat": 53.9160178, "lon": 27.582498, "tags": {"colour": "blue", "int_name": "plo\u0161\u010da Jakuba Kolasa", "name": "\u041f\u043b\u043e\u0449\u0430\u0434\u044c \u042f\u043a\u0443\u0431\u0430 \u041a\u043e\u043b\u0430\u0441\u0430", "name:be": "\u041f\u043b\u043e\u0448\u0447\u0430 \u042f\u043a\u0443\u0431\u0430 \u041a\u043e\u043b\u0430\u0441\u0430", "name:ru": "\u041f\u043b\u043e\u0449\u0430\u0434\u044c \u042f\u043a\u0443\u0431\u0430 \u041a\u043e\u043b\u0430\u0441\u0430", "network": "\u041c\u0438\u043d\u0441\u043a\u0438\u0439 \u043c\u0435\u0442\u0440\u043e\u043f\u043e\u043b\u0438\u0442\u0435\u043d", "railway": "subway_entrance", "wheelchair": "no"}}, {"type": "node", "id": 456000849, "lat": 53.9156534, "lon": 27.5821521, "tags": {"colour": "blue", "int_name": "plo\u0161\u010da Jakuba Kolasa", "name": "\u041f\u043b\u043e\u0448\u0447\u0430 \u042f\u043a\u0443\u0431\u0430 \u041a\u043e\u043b\u0430\u0441\u0430", "name:be": "\u041f\u043b\u043e\u0448\u0447\u0430 \u042f\u043a\u0443\u0431\u0430 \u041a\u043e\u043b\u0430\u0441\u0430", "name:ru": "\u041f\u043b\u043e\u0449\u0430\u0434\u044c \u042f\u043a\u0443\u0431\u0430 \u041a\u043e\u043b\u0430\u0441\u0430", "network": "\u041c\u0438\u043d\u0441\u043a\u0438\u0439 \u043c\u0435\u0442\u0440\u043e\u043f\u043e\u043b\u0438\u0442\u0435\u043d", "railway": "subway_entrance", "wheelchair": "no"}}, {"type": "node", "id": 456018181, "lat": 53.9158441, "lon": 27.5827212, "tags": {"colour": "blue", "int_name": "plo\u0161\u010da Jakuba Kolasa", "name": "\u041f\u043b\u043e\u0449\u0430\u0434\u044c \u042f\u043a\u0443\u0431\u0430 \u041a\u043e\u043b\u0430\u0441\u0430", "name:be": "\u041f\u043b\u043e\u0448\u0447\u0430 \u042f\u043a\u0443\u0431\u0430 \u041a\u043e\u043b\u0430\u0441\u0430", "name:ru": "\u041f\u043b\u043e\u0449\u0430\u0434\u044c \u042f\u043a\u0443\u0431\u0430 \u041a\u043e\u043b\u0430\u0441\u0430", "network": "\u041c\u0438\u043d\u0441\u043a\u0438\u0439 \u043c\u0435\u0442\u0440\u043e\u043f\u043e\u043b\u0438\u0442\u0435\u043d", "railway": "subway_entrance", "wheelchair": "no"}}, {"type": "node", "id": 457862402, "lat": 53.9055259, "lon": 27.5545775, "tags": {"colour": "red", "int_name": "Niamiha", "name": "\u041d\u0435\u043c\u0438\u0433\u0430", "name:be": "\u041d\u044f\u043c\u0456\u0433\u0430", "name:ru": "\u041d\u0435\u043c\u0438\u0433\u0430", "network": "\u041c\u0438\u043d\u0441\u043a\u0438\u0439 \u043c\u0435\u0442\u0440\u043e\u043f\u043e\u043b\u0438\u0442\u0435\u043d", "railway": "subway_entrance", "wheelchair": "no"}}, {"type": "node", "id": 473698193, "lat": 53.9089564, "lon": 27.5742584, "tags": {"alt_name": "\u041a\u0440\u0443\u0433\u043b\u0430\u044f \u043f\u043b\u043e\u0449\u0430\u0434\u044c", "colour": "blue", "int_name": "Plo\u0161\u010da Pieramohi", "name": "\u041f\u043b\u043e\u0448\u0447\u0430 \u041f\u0435\u0440\u0430\u043c\u043e\u0433\u0456", "name:be": "\u041f\u043b\u043e\u0448\u0447\u0430 \u041f\u0435\u0440\u0430\u043c\u043e\u0433\u0456", "name:de": "Siegesplatz", "name:en": "Victory Square", "name:ru": "\u041f\u043b\u043e\u0449\u0430\u0434\u044c \u041f\u043e\u0431\u0435\u0434\u044b", "network": "\u041c\u0438\u043d\u0441\u043a\u0438\u0439 \u043c\u0435\u0442\u0440\u043e\u043f\u043e\u043b\u0438\u0442\u0435\u043d", "railway": "subway_entrance"}}, {"type": "node", "id": 473698196, "lat": 53.9092412, "lon": 27.5744514, "tags": {"alt_name": "\u041a\u0440\u0443\u0433\u043b\u0430\u044f \u043f\u043b\u043e\u0449\u0430\u0434\u044c", "colour": "blue", "int_name": "Plo\u0161\u010da Pieramohi", "name": "\u041f\u043b\u043e\u0448\u0447\u0430 \u041f\u0435\u0440\u0430\u043c\u043e\u0433\u0456", "name:be": "\u041f\u043b\u043e\u0448\u0447\u0430 \u041f\u0435\u0440\u0430\u043c\u043e\u0433\u0456", "name:de": "Siegesplatz", "name:en": "Victory Square", "name:ru": "\u041f\u043b\u043e\u0449\u0430\u0434\u044c \u041f\u043e\u0431\u0435\u0434\u044b", "network": "\u041c\u0438\u043d\u0441\u043a\u0438\u0439 \u043c\u0435\u0442\u0440\u043e\u043f\u043e\u043b\u0438\u0442\u0435\u043d", "railway": "subway_entrance", "wheelchair": "yes"}}, {"type": "node", "id": 473698197, "lat": 53.9091155, "lon": 27.5748707, "tags": {"alt_name": "\u041a\u0440\u0443\u0433\u043b\u0430\u044f \u043f\u043b\u043e\u0449\u0430\u0434\u044c", "colour": "blue", "int_name": "Plo\u0161\u010da Pieramohi", "name": "\u041f\u043b\u043e\u0448\u0447\u0430 \u041f\u0435\u0440\u0430\u043c\u043e\u0433\u0456", "name:be": "\u041f\u043b\u043e\u0448\u0447\u0430 \u041f\u0435\u0440\u0430\u043c\u043e\u0433\u0456", "name:de": "Siegesplatz", "name:en": "Victory Square", "name:ru": "\u041f\u043b\u043e\u0449\u0430\u0434\u044c \u041f\u043e\u0431\u0435\u0434\u044b", "network": "\u041c\u0438\u043d\u0441\u043a\u0438\u0439 \u043c\u0435\u0442\u0440\u043e\u043f\u043e\u043b\u0438\u0442\u0435\u043d", "railway": "subway_entrance", "wheelchair": "no"}}, {"type": "node", "id": 473698206, "lat": 53.9081054, "lon": 27.5753984, "tags": {"alt_name": "\u041a\u0440\u0443\u0433\u043b\u0430\u044f \u043f\u043b\u043e\u0449\u0430\u0434\u044c", "colour": "blue", "int_name": "Plo\u0161\u010da Pieramohi", "name": "\u041f\u043b\u043e\u0448\u0447\u0430 \u041f\u0435\u0440\u0430\u043c\u043e\u0433\u0456", "name:be": "\u041f\u043b\u043e\u0448\u0447\u0430 \u041f\u0435\u0440\u0430\u043c\u043e\u0433\u0456", "name:de": "Siegesplatz", "name:en": "Victory Square", "name:ru": "\u041f\u043b\u043e\u0449\u0430\u0434\u044c \u041f\u043e\u0431\u0435\u0434\u044b", "network": "\u041c\u0438\u043d\u0441\u043a\u0438\u0439 \u043c\u0435\u0442\u0440\u043e\u043f\u043e\u043b\u0438\u0442\u0435\u043d", "railway": "subway_entrance"}}, {"type": "node", "id": 473698209, "lat": 53.9084447, "lon": 27.5757929, "tags": {"alt_name": "\u041a\u0440\u0443\u0433\u043b\u0430\u044f \u043f\u043b\u043e\u0449\u0430\u0434\u044c", "colour": "blue", "int_name": "Plo\u0161\u010da Pieramohi", "name": "\u041f\u043b\u043e\u0448\u0447\u0430 \u041f\u0435\u0440\u0430\u043c\u043e\u0433\u0456", "name:be": "\u041f\u043b\u043e\u0448\u0447\u0430 \u041f\u0435\u0440\u0430\u043c\u043e\u0433\u0456", "name:de": "Siegesplatz", "name:en": "Victory Square", "name:ru": "\u041f\u043b\u043e\u0449\u0430\u0434\u044c \u041f\u043e\u0431\u0435\u0434\u044b", "network": "\u041c\u0438\u043d\u0441\u043a\u0438\u0439 \u043c\u0435\u0442\u0440\u043e\u043f\u043e\u043b\u0438\u0442\u0435\u043d", "railway": "subway_entrance"}}, {"type": "node", "id": 473698211, "lat": 53.9081863, "lon": 27.5759061, "tags": {"alt_name": "\u041a\u0440\u0443\u0433\u043b\u0430\u044f \u043f\u043b\u043e\u0449\u0430\u0434\u044c", "colour": "blue", "int_name": "Plo\u0161\u010da Pieramohi", "name": "\u041f\u043b\u043e\u0449\u0430\u0434\u044c \u041f\u043e\u0431\u0435\u0434\u044b", "name:be": "\u041f\u043b\u043e\u0448\u0447\u0430 \u041f\u0435\u0440\u0430\u043c\u043e\u0433\u0456", "name:de": "Siegesplatz", "name:en": "Victory Square", "name:ru": "\u041f\u043b\u043e\u0449\u0430\u0434\u044c \u041f\u043e\u0431\u0435\u0434\u044b", "network": "\u041c\u0438\u043d\u0441\u043a\u0438\u0439 \u043c\u0435\u0442\u0440\u043e\u043f\u043e\u043b\u0438\u0442\u0435\u043d", "railway": "subway_entrance"}}, {"type": "node", "id": 473722182, "lat": 53.9082535, "lon": 27.5746817, "tags": {"alt_name": "\u041a\u0440\u0443\u0433\u043b\u0430\u044f \u043f\u043b\u043e\u0449\u0430\u0434\u044c", "colour": "blue", "int_name": "Plo\u0161\u010da Pieramohi", "name": "\u041f\u043b\u043e\u0448\u0447\u0430 \u041f\u0435\u0440\u0430\u043c\u043e\u0433\u0456", "name:be": "\u041f\u043b\u043e\u0448\u0447\u0430 \u041f\u0435\u0440\u0430\u043c\u043e\u0433\u0456", "name:de": "Siegesplatz", "name:en": "Victory Square", "name:ru": "\u041f\u043b\u043e\u0449\u0430\u0434\u044c \u041f\u043e\u0431\u0435\u0434\u044b", "network": "\u041c\u0438\u043d\u0441\u043a\u0438\u0439 \u043c\u0435\u0442\u0440\u043e\u043f\u043e\u043b\u0438\u0442\u0435\u043d", "railway": "subway_entrance", "wheelchair": "yes"}}, {"type": "node", "id": 473722186, "lat": 53.9085072, "lon": 27.5743119, "tags": {"alt_name": "\u041a\u0440\u0443\u0433\u043b\u0430\u044f \u043f\u043b\u043e\u0449\u0430\u0434\u044c", "colour": "blue", "int_name": "Plo\u0161\u010da Pieramohi", "name": "\u041f\u043b\u043e\u0448\u0447\u0430 \u041f\u0435\u0440\u0430\u043c\u043e\u0433\u0456", "name:be": "\u041f\u043b\u043e\u0448\u0447\u0430 \u041f\u0435\u0440\u0430\u043c\u043e\u0433\u0456", "name:de": "Siegesplatz", "name:en": "Victory Square", "name:ru": "\u041f\u043b\u043e\u0449\u0430\u0434\u044c \u041f\u043e\u0431\u0435\u0434\u044b", "network": "\u041c\u0438\u043d\u0441\u043a\u0438\u0439 \u043c\u0435\u0442\u0440\u043e\u043f\u043e\u043b\u0438\u0442\u0435\u043d", "railway": "subway_entrance", "wheelchair": "no"}}, {"type": "node", "id": 538457980, "lat": 53.9211386, "lon": 27.5977205, "tags": {"colour": "blue", "int_name": "Akademija navuk", "name": "\u0410\u043a\u0430\u0434\u0435\u043c\u0438\u044f \u043d\u0430\u0443\u043a", "name:be": "\u0410\u043a\u0430\u0434\u044d\u043c\u0456\u044f \u043d\u0430\u0432\u0443\u043a", "name:ru": "\u0410\u043a\u0430\u0434\u0435\u043c\u0438\u044f \u043d\u0430\u0443\u043a", "network": "\u041c\u0438\u043d\u0441\u043a\u0438\u0439 \u043c\u0435\u0442\u0440\u043e\u043f\u043e\u043b\u0438\u0442\u0435\u043d", "railway": "subway_entrance"}}, {"type": "node", "id": 538491247, "lat": 53.8748693, "lon": 27.6296816, "tags": {"colour": "red", "int_name": "Partyzanskaja", "name": "\u041f\u0430\u0440\u0442\u0438\u0437\u0430\u043d\u0441\u043a\u0430\u044f", "name:be": "\u041f\u0430\u0440\u0442\u044b\u0437\u0430\u043d\u0441\u043a\u0430\u044f", "name:ru": "\u041f\u0430\u0440\u0442\u0438\u0437\u0430\u043d\u0441\u043a\u0430\u044f", "network": "\u041c\u0438\u043d\u0441\u043a\u0438\u0439 \u043c\u0435\u0442\u0440\u043e\u043f\u043e\u043b\u0438\u0442\u0435\u043d", "railway": "subway_entrance"}}, {"type": "node", "id": 538491283, "lat": 53.8751311, "lon": 27.6302496, "tags": {"colour": "red", "int_name": "Partyzanskaja", "name": "\u041f\u0430\u0440\u0442\u0438\u0437\u0430\u043d\u0441\u043a\u0430\u044f", "name:be": "\u041f\u0430\u0440\u0442\u044b\u0437\u0430\u043d\u0441\u043a\u0430\u044f", "name:ru": "\u041f\u0430\u0440\u0442\u0438\u0437\u0430\u043d\u0441\u043a\u0430\u044f", "network": "\u041c\u0438\u043d\u0441\u043a\u0438\u0439 \u043c\u0435\u0442\u0440\u043e\u043f\u043e\u043b\u0438\u0442\u0435\u043d", "railway": "subway_entrance"}}, {"type": "node", "id": 538491309, "lat": 53.8760004, "lon": 27.6284268, "tags": {"colour": "red", "int_name": "Partyzanskaja", "name": "\u041f\u0430\u0440\u0442\u0438\u0437\u0430\u043d\u0441\u043a\u0430\u044f", "name:be": "\u041f\u0430\u0440\u0442\u044b\u0437\u0430\u043d\u0441\u043a\u0430\u044f", "name:ru": "\u041f\u0430\u0440\u0442\u0438\u0437\u0430\u043d\u0441\u043a\u0430\u044f", "network": "\u041c\u0438\u043d\u0441\u043a\u0438\u0439 \u043c\u0435\u0442\u0440\u043e\u043f\u043e\u043b\u0438\u0442\u0435\u043d", "railway": "subway_entrance"}}, {"type": "node", "id": 539125893, "lat": 53.8768096, "lon": 27.6268281, "tags": {"colour": "red", "int_name": "Partyzanskaja", "name": "\u041f\u0430\u0440\u0442\u0438\u0437\u0430\u043d\u0441\u043a\u0430\u044f", "name:be": "\u041f\u0430\u0440\u0442\u044b\u0437\u0430\u043d\u0441\u043a\u0430\u044f", "name:ru": "\u041f\u0430\u0440\u0442\u0438\u0437\u0430\u043d\u0441\u043a\u0430\u044f", "network": "\u041c\u0438\u043d\u0441\u043a\u0438\u0439 \u043c\u0435\u0442\u0440\u043e\u043f\u043e\u043b\u0438\u0442\u0435\u043d", "railway": "subway_entrance"}}, {"type": "node", "id": 539125895, "lat": 53.8767682, "lon": 27.6270893, "tags": {"colour": "red", "int_name": "Partyzanskaja", "name": "\u041f\u0430\u0440\u0442\u0438\u0437\u0430\u043d\u0441\u043a\u0430\u044f", "name:be": "\u041f\u0430\u0440\u0442\u044b\u0437\u0430\u043d\u0441\u043a\u0430\u044f", "name:ru": "\u041f\u0430\u0440\u0442\u0438\u0437\u0430\u043d\u0441\u043a\u0430\u044f", "network": "\u041c\u0438\u043d\u0441\u043a\u0438\u0439 \u043c\u0435\u0442\u0440\u043e\u043f\u043e\u043b\u0438\u0442\u0435\u043d", "railway": "subway_entrance"}}, {"type": "node", "id": 539125897, "lat": 53.8768063, "lon": 27.6275963, "tags": {"colour": "red", "int_name": "Partyzanskaja", "name": "\u041f\u0430\u0440\u0442\u0438\u0437\u0430\u043d\u0441\u043a\u0430\u044f", "name:be": "\u041f\u0430\u0440\u0442\u044b\u0437\u0430\u043d\u0441\u043a\u0430\u044f", "name:ru": "\u041f\u0430\u0440\u0442\u0438\u0437\u0430\u043d\u0441\u043a\u0430\u044f", "network": "\u041c\u0438\u043d\u0441\u043a\u0438\u0439 \u043c\u0435\u0442\u0440\u043e\u043f\u043e\u043b\u0438\u0442\u0435\u043d", "railway": "subway_entrance"}}, {"type": "node", "id": 539125899, "lat": 53.8744894, "lon": 27.6298019, "tags": {"colour": "red", "int_name": "Partyzanskaja", "name": "\u041f\u0430\u0440\u0442\u0438\u0437\u0430\u043d\u0441\u043a\u0430\u044f", "name:be": "\u041f\u0430\u0440\u0442\u044b\u0437\u0430\u043d\u0441\u043a\u0430\u044f", "name:ru": "\u041f\u0430\u0440\u0442\u0438\u0437\u0430\u043d\u0441\u043a\u0430\u044f", "network": "\u041c\u0438\u043d\u0441\u043a\u0438\u0439 \u043c\u0435\u0442\u0440\u043e\u043f\u043e\u043b\u0438\u0442\u0435\u043d", "railway": "subway_entrance"}}, {"type": "node", "id": 539125901, "lat": 53.8743852, "lon": 27.6303416, "tags": {"colour": "red", "int_name": "Partyzanskaja", "name": "\u041f\u0430\u0440\u0442\u0438\u0437\u0430\u043d\u0441\u043a\u0430\u044f", "name:be": "\u041f\u0430\u0440\u0442\u044b\u0437\u0430\u043d\u0441\u043a\u0430\u044f", "name:ru": "\u041f\u0430\u0440\u0442\u0438\u0437\u0430\u043d\u0441\u043a\u0430\u044f", "network": "\u041c\u0438\u043d\u0441\u043a\u0438\u0439 \u043c\u0435\u0442\u0440\u043e\u043f\u043e\u043b\u0438\u0442\u0435\u043d", "railway": "subway_entrance"}}, {"type": "node", "id": 539125915, "lat": 53.8762312, "lon": 27.6293716, "tags": {"colour": "red", "int_name": "Partyzanskaja", "name": "\u041f\u0430\u0440\u0442\u0438\u0437\u0430\u043d\u0441\u043a\u0430\u044f", "name:be": "\u041f\u0430\u0440\u0442\u044b\u0437\u0430\u043d\u0441\u043a\u0430\u044f", "name:ru": "\u041f\u0430\u0440\u0442\u0438\u0437\u0430\u043d\u0441\u043a\u0430\u044f", "network": "\u041c\u0438\u043d\u0441\u043a\u0438\u0439 \u043c\u0435\u0442\u0440\u043e\u043f\u043e\u043b\u0438\u0442\u0435\u043d", "railway": "subway_entrance"}}, {"type": "node", "id": 548324356, "lat": 53.8611609, "lon": 27.6743281, "tags": {"colour": "red", "int_name": "Mahilio\u016dskaja", "name": "\u041c\u043e\u0433\u0438\u043b\u0451\u0432\u0441\u043a\u0430\u044f", "name:be": "\u041c\u0430\u0433\u0456\u043b\u0451\u045e\u0441\u043a\u0430\u044f", "name:ru": "\u041c\u043e\u0433\u0438\u043b\u0451\u0432\u0441\u043a\u0430\u044f", "network": "\u041c\u0438\u043d\u0441\u043a\u0438\u0439 \u043c\u0435\u0442\u0440\u043e\u043f\u043e\u043b\u0438\u0442\u0435\u043d", "railway": "subway_entrance"}}, {"type": "node", "id": 548325644, "lat": 53.8615746, "lon": 27.6747318, "tags": {"colour": "red", "int_name": "Mahilio\u016dskaja", "name": "\u041c\u043e\u0433\u0438\u043b\u0451\u0432\u0441\u043a\u0430\u044f", "name:be": "\u041c\u0430\u0433\u0456\u043b\u0451\u045e\u0441\u043a\u0430\u044f", "name:ru": "\u041c\u043e\u0433\u0438\u043b\u0451\u0432\u0441\u043a\u0430\u044f", "network": "\u041c\u0438\u043d\u0441\u043a\u0438\u0439 \u043c\u0435\u0442\u0440\u043e\u043f\u043e\u043b\u0438\u0442\u0435\u043d", "railway": "subway_entrance", "wheelchair": "yes"}}, {"type": "node", "id": 566211398, "lat": 53.8891626, "lon": 27.6147986, "tags": {"colour": "red", "int_name": "Traktarny zavod", "name": "\u0422\u0440\u0430\u043a\u0442\u043e\u0440\u043d\u044b\u0439 \u0437\u0430\u0432\u043e\u0434", "name:be": "\u0422\u0440\u0430\u043a\u0442\u0430\u0440\u043d\u044b \u0437\u0430\u0432\u043e\u0434", "name:ru": "\u0422\u0440\u0430\u043a\u0442\u043e\u0440\u043d\u044b\u0439 \u0437\u0430\u0432\u043e\u0434", "network": "\u041c\u0438\u043d\u0441\u043a\u0438\u0439 \u043c\u0435\u0442\u0440\u043e\u043f\u043e\u043b\u0438\u0442\u0435\u043d", "railway": "subway_entrance"}}, {"type": "node", "id": 566211404, "lat": 53.8893104, "lon": 27.615321, "tags": {"colour": "red", "int_name": "Traktarny zavod", "name": "\u0422\u0440\u0430\u043a\u0442\u0430\u0440\u043d\u044b \u0437\u0430\u0432\u043e\u0434", "name:be": "\u0422\u0440\u0430\u043a\u0442\u0430\u0440\u043d\u044b \u0437\u0430\u0432\u043e\u0434", "name:ru": "\u0422\u0440\u0430\u043a\u0442\u043e\u0440\u043d\u044b\u0439 \u0437\u0430\u0432\u043e\u0434", "network": "\u041c\u0438\u043d\u0441\u043a\u0438\u0439 \u043c\u0435\u0442\u0440\u043e\u043f\u043e\u043b\u0438\u0442\u0435\u043d", "railway": "subway_entrance"}}, {"type": "node", "id": 566211415, "lat": 53.8893884, "lon": 27.615855, "tags": {"colour": "red", "int_name": "Traktarny zavod", "name": "\u0422\u0440\u0430\u043a\u0442\u0430\u0440\u043d\u044b \u0437\u0430\u0432\u043e\u0434", "name:be": "\u0422\u0440\u0430\u043a\u0442\u0430\u0440\u043d\u044b \u0437\u0430\u0432\u043e\u0434", "name:ru": "\u0422\u0440\u0430\u043a\u0442\u043e\u0440\u043d\u044b\u0439 \u0437\u0430\u0432\u043e\u0434", "network": "\u041c\u0438\u043d\u0441\u043a\u0438\u0439 \u043c\u0435\u0442\u0440\u043e\u043f\u043e\u043b\u0438\u0442\u0435\u043d", "railway": "subway_entrance"}}, {"type": "node", "id": 600910948, "lat": 53.9385693, "lon": 27.6652795, "tags": {"colour": "blue", "int_name": "Barysa\u016dski trakt", "name": "\u0411\u0430\u0440\u044b\u0441\u0430\u045e\u0441\u043a\u0456 \u0442\u0440\u0430\u043a\u0442", "name:be": "\u0411\u0430\u0440\u044b\u0441\u0430\u045e\u0441\u043a\u0456 \u0442\u0440\u0430\u043a\u0442", "name:ru": "\u0411\u043e\u0440\u0438\u0441\u043e\u0432\u0441\u043a\u0438\u0439 \u0442\u0440\u0430\u043a\u0442", "network": "\u041c\u0438\u043d\u0441\u043a\u0438\u0439 \u043c\u0435\u0442\u0440\u043e\u043f\u043e\u043b\u0438\u0442\u0435\u043d", "railway": "subway_entrance"}}, {"type": "node", "id": 735088501, "lat": 53.9220017, "lon": 27.6008023, "tags": {"colour": "blue", "int_name": "Akademija navuk", "name": "\u0410\u043a\u0430\u0434\u044d\u043c\u0456\u044f \u043d\u0430\u0432\u0443\u043a", "name:be": "\u0410\u043a\u0430\u0434\u044d\u043c\u0456\u044f \u043d\u0430\u0432\u0443\u043a", "name:ru": "\u0410\u043a\u0430\u0434\u0435\u043c\u0438\u044f \u043d\u0430\u0443\u043a", "network": "\u041c\u0438\u043d\u0441\u043a\u0438\u0439 \u043c\u0435\u0442\u0440\u043e\u043f\u043e\u043b\u0438\u0442\u0435\u043d", "railway": "subway_entrance"}}, {"type": "node", "id": 735088503, "lat": 53.9223905, "lon": 27.6005341, "tags": {"colour": "blue", "int_name": "Akademija navuk", "name": "\u0410\u043a\u0430\u0434\u044d\u043c\u0456\u044f \u043d\u0430\u0432\u0443\u043a", "name:be": "\u0410\u043a\u0430\u0434\u044d\u043c\u0456\u044f \u043d\u0430\u0432\u0443\u043a", "name:ru": "\u0410\u043a\u0430\u0434\u0435\u043c\u0438\u044f \u043d\u0430\u0443\u043a", "network": "\u041c\u0438\u043d\u0441\u043a\u0438\u0439 \u043c\u0435\u0442\u0440\u043e\u043f\u043e\u043b\u0438\u0442\u0435\u043d", "railway": "subway_entrance"}}, {"type": "node", "id": 767183493, "lat": 53.8849599, "lon": 27.5402828, "tags": {"colour": "blue", "int_name": "Instytut Ku\u013atury", "name": "\u0406\u043d\u0441\u0442\u044b\u0442\u0443\u0442 \u041a\u0443\u043b\u044c\u0442\u0443\u0440\u044b", "name:be": "\u0406\u043d\u0441\u0442\u044b\u0442\u0443\u0442 \u041a\u0443\u043b\u044c\u0442\u0443\u0440\u044b", "name:ru": "\u0418\u043d\u0441\u0442\u0438\u0442\u0443\u0442 \u041a\u0443\u043b\u044c\u0442\u0443\u0440\u044b", "network": "\u041c\u0438\u043d\u0441\u043a\u0438\u0439 \u043c\u0435\u0442\u0440\u043e\u043f\u043e\u043b\u0438\u0442\u0435\u043d", "railway": "subway_entrance", "wheelchair": "no"}}, {"type": "node", "id": 820683722, "lat": 53.8690124, "lon": 27.6502915, "tags": {"colour": "red", "int_name": "A\u016dtazavodskaja", "name": "\u0410\u0432\u0442\u043e\u0437\u0430\u0432\u043e\u0434\u0441\u043a\u0430\u044f", "name:be": "\u0410\u045e\u0442\u0430\u0437\u0430\u0432\u043e\u0434\u0441\u043a\u0430\u044f", "name:ru": "\u0410\u0432\u0442\u043e\u0437\u0430\u0432\u043e\u0434\u0441\u043a\u0430\u044f", "network": "\u041c\u0438\u043d\u0441\u043a\u0438\u0439 \u043c\u0435\u0442\u0440\u043e\u043f\u043e\u043b\u0438\u0442\u0435\u043d", "railway": "subway_entrance"}}, {"type": "node", "id": 847593949, "lat": 53.8937523, "lon": 27.5698295, "tags": {"colour": "red", "int_name": "Pier\u0161amajskaja", "name": "\u041f\u0435\u0440\u0432\u043e\u043c\u0430\u0439\u0441\u043a\u0430\u044f", "name:be": "\u041f\u0435\u0440\u0448\u0430\u043c\u0430\u0439\u0441\u043a\u0430\u044f", "name:ru": "\u041f\u0435\u0440\u0432\u043e\u043c\u0430\u0439\u0441\u043a\u0430\u044f", "network": "\u041c\u0438\u043d\u0441\u043a\u0438\u0439 \u043c\u0435\u0442\u0440\u043e\u043f\u043e\u043b\u0438\u0442\u0435\u043d", "railway": "subway_entrance", "wheelchair": "yes"}}, {"type": "node", "id": 847593953, "lat": 53.8939876, "lon": 27.5700114, "tags": {"colour": "red", "int_name": "Pier\u0161amajskaja", "name": "\u041f\u0435\u0440\u0432\u043e\u043c\u0430\u0439\u0441\u043a\u0430\u044f", "name:be": "\u041f\u0435\u0440\u0448\u0430\u043c\u0430\u0439\u0441\u043a\u0430\u044f", "name:ru": "\u041f\u0435\u0440\u0432\u043e\u043c\u0430\u0439\u0441\u043a\u0430\u044f", "network": "\u041c\u0438\u043d\u0441\u043a\u0438\u0439 \u043c\u0435\u0442\u0440\u043e\u043f\u043e\u043b\u0438\u0442\u0435\u043d", "railway": "subway_entrance", "wheelchair": "yes"}}, {"type": "node", "id": 847594122, "lat": 53.8935799, "lon": 27.5704001, "tags": {"colour": "red", "int_name": "Pier\u0161amajskaja", "name": "\u041f\u0435\u0440\u0432\u043e\u043c\u0430\u0439\u0441\u043a\u0430\u044f", "name:be": "\u041f\u0435\u0440\u0448\u0430\u043c\u0430\u0439\u0441\u043a\u0430\u044f", "name:ru": "\u041f\u0435\u0440\u0432\u043e\u043c\u0430\u0439\u0441\u043a\u0430\u044f", "network": "\u041c\u0438\u043d\u0441\u043a\u0438\u0439 \u043c\u0435\u0442\u0440\u043e\u043f\u043e\u043b\u0438\u0442\u0435\u043d", "railway": "subway_entrance", "wheelchair": "no"}}, {"type": "node", "id": 848502270, "lat": 53.8858619, "lon": 27.5378729, "tags": {"colour": "blue", "int_name": "Instytut Ku\u013atury", "name": "\u0406\u043d\u0441\u0442\u044b\u0442\u0443\u0442 \u041a\u0443\u043b\u044c\u0442\u0443\u0440\u044b", "name:be": "\u0406\u043d\u0441\u0442\u044b\u0442\u0443\u0442 \u041a\u0443\u043b\u044c\u0442\u0443\u0440\u044b", "name:ru": "\u0418\u043d\u0441\u0442\u0438\u0442\u0443\u0442 \u041a\u0443\u043b\u044c\u0442\u0443\u0440\u044b", "network": "\u041c\u0438\u043d\u0441\u043a\u0438\u0439 \u043c\u0435\u0442\u0440\u043e\u043f\u043e\u043b\u0438\u0442\u0435\u043d", "railway": "subway_entrance", "wheelchair": "yes"}}, {"type": "node", "id": 848502329, "lat": 53.8850948, "lon": 27.5393605, "tags": {"colour": "blue", "int_name": "Instytut Ku\u013atury", "name": "\u0406\u043d\u0441\u0442\u044b\u0442\u0443\u0442 \u041a\u0443\u043b\u044c\u0442\u0443\u0440\u044b", "name:be": "\u0406\u043d\u0441\u0442\u044b\u0442\u0443\u0442 \u041a\u0443\u043b\u044c\u0442\u0443\u0440\u044b", "name:ru": "\u0418\u043d\u0441\u0442\u0438\u0442\u0443\u0442 \u041a\u0443\u043b\u044c\u0442\u0443\u0440\u044b", "network": "\u041c\u0438\u043d\u0441\u043a\u0438\u0439 \u043c\u0435\u0442\u0440\u043e\u043f\u043e\u043b\u0438\u0442\u0435\u043d", "railway": "subway_entrance", "wheelchair": "yes"}}, {"type": "node", "id": 848502338, "lat": 53.8863452, "lon": 27.5412329, "tags": {"colour": "blue", "int_name": "Instytut Ku\u013atury", "name": "\u0406\u043d\u0441\u0442\u044b\u0442\u0443\u0442 \u041a\u0443\u043b\u044c\u0442\u0443\u0440\u044b", "name:be": "\u0406\u043d\u0441\u0442\u044b\u0442\u0443\u0442 \u041a\u0443\u043b\u044c\u0442\u0443\u0440\u044b", "name:ru": "\u0418\u043d\u0441\u0442\u0438\u0442\u0443\u0442 \u041a\u0443\u043b\u044c\u0442\u0443\u0440\u044b", "network": "\u041c\u0438\u043d\u0441\u043a\u0438\u0439 \u043c\u0435\u0442\u0440\u043e\u043f\u043e\u043b\u0438\u0442\u0435\u043d", "railway": "subway_entrance"}}, {"type": "node", "id": 848502354, "lat": 53.8859914, "lon": 27.5393653, "tags": {"colour": "blue", "int_name": "Instytut Ku\u013atury", "name": "\u0406\u043d\u0441\u0442\u044b\u0442\u0443\u0442 \u041a\u0443\u043b\u044c\u0442\u0443\u0440\u044b", "name:be": "\u0406\u043d\u0441\u0442\u044b\u0442\u0443\u0442 \u041a\u0443\u043b\u044c\u0442\u0443\u0440\u044b", "name:ru": "\u0418\u043d\u0441\u0442\u0438\u0442\u0443\u0442 \u041a\u0443\u043b\u044c\u0442\u0443\u0440\u044b", "network": "\u041c\u0438\u043d\u0441\u043a\u0438\u0439 \u043c\u0435\u0442\u0440\u043e\u043f\u043e\u043b\u0438\u0442\u0435\u043d", "railway": "subway_entrance", "wheelchair": "no"}}, {"type": "node", "id": 848502370, "lat": 53.8865181, "lon": 27.5417905, "tags": {"colour": "blue", "int_name": "Instytut Ku\u013atury", "name": "\u0406\u043d\u0441\u0442\u044b\u0442\u0443\u0442 \u041a\u0443\u043b\u044c\u0442\u0443\u0440\u044b", "name:be": "\u0406\u043d\u0441\u0442\u044b\u0442\u0443\u0442 \u041a\u0443\u043b\u044c\u0442\u0443\u0440\u044b", "name:ru": "\u0418\u043d\u0441\u0442\u0438\u0442\u0443\u0442 \u041a\u0443\u043b\u044c\u0442\u0443\u0440\u044b", "network": "\u041c\u0438\u043d\u0441\u043a\u0438\u0439 \u043c\u0435\u0442\u0440\u043e\u043f\u043e\u043b\u0438\u0442\u0435\u043d", "railway": "subway_entrance"}}, {"type": "node", "id": 848502392, "lat": 53.8863623, "lon": 27.5381965, "tags": {"colour": "blue", "int_name": "Instytut Ku\u013atury", "name": "\u0406\u043d\u0441\u0442\u044b\u0442\u0443\u0442 \u041a\u0443\u043b\u044c\u0442\u0443\u0440\u044b", "name:be": "\u0406\u043d\u0441\u0442\u044b\u0442\u0443\u0442 \u041a\u0443\u043b\u044c\u0442\u0443\u0440\u044b", "name:ru": "\u0418\u043d\u0441\u0442\u0438\u0442\u0443\u0442 \u041a\u0443\u043b\u044c\u0442\u0443\u0440\u044b", "network": "\u041c\u0438\u043d\u0441\u043a\u0438\u0439 \u043c\u0435\u0442\u0440\u043e\u043f\u043e\u043b\u0438\u0442\u0435\u043d", "railway": "subway_entrance", "wheelchair": "yes"}}, {"type": "node", "id": 848502394, "lat": 53.8862292, "lon": 27.5371517, "tags": {"colour": "blue", "int_name": "Instytut Ku\u013atury", "name": "\u0406\u043d\u0441\u0442\u044b\u0442\u0443\u0442 \u041a\u0443\u043b\u044c\u0442\u0443\u0440\u044b", "name:be": "\u0406\u043d\u0441\u0442\u044b\u0442\u0443\u0442 \u041a\u0443\u043b\u044c\u0442\u0443\u0440\u044b", "name:ru": "\u0418\u043d\u0441\u0442\u0438\u0442\u0443\u0442 \u041a\u0443\u043b\u044c\u0442\u0443\u0440\u044b", "network": "\u041c\u0438\u043d\u0441\u043a\u0438\u0439 \u043c\u0435\u0442\u0440\u043e\u043f\u043e\u043b\u0438\u0442\u0435\u043d", "railway": "subway_entrance", "wheelchair": "no"}}, {"type": "node", "id": 848502413, "lat": 53.8859269, "lon": 27.5380339, "tags": {"colour": "blue", "int_name": "Instytut Ku\u013atury", "name": "\u0406\u043d\u0441\u0442\u044b\u0442\u0443\u0442 \u041a\u0443\u043b\u044c\u0442\u0443\u0440\u044b", "name:be": "\u0406\u043d\u0441\u0442\u044b\u0442\u0443\u0442 \u041a\u0443\u043b\u044c\u0442\u0443\u0440\u044b", "name:ru": "\u0418\u043d\u0441\u0442\u0438\u0442\u0443\u0442 \u041a\u0443\u043b\u044c\u0442\u0443\u0440\u044b", "network": "\u041c\u0438\u043d\u0441\u043a\u0438\u0439 \u043c\u0435\u0442\u0440\u043e\u043f\u043e\u043b\u0438\u0442\u0435\u043d", "railway": "subway_entrance", "wheelchair": "no"}}, {"type": "node", "id": 848502455, "lat": 53.8848145, "lon": 27.539818, "tags": {"addr:city": "\u041c\u0438\u043d\u0441\u043a", "addr:city:ru": "\u041c\u0438\u043d\u0441\u043a", "addr:country": "BY", "addr:housenumber": "5\u0411", "addr:street": "\u041c\u043e\u0433\u0438\u043b\u0451\u0432\u0441\u043a\u0430\u044f \u0443\u043b\u0438\u0446\u0430", "colour": "blue", "int_name": "Instytut Ku\u013atury", "name": "\u0406\u043d\u0441\u0442\u044b\u0442\u0443\u0442 \u041a\u0443\u043b\u044c\u0442\u0443\u0440\u044b", "name:be": "\u0406\u043d\u0441\u0442\u044b\u0442\u0443\u0442 \u041a\u0443\u043b\u044c\u0442\u0443\u0440\u044b", "name:ru": "\u0418\u043d\u0441\u0442\u0438\u0442\u0443\u0442 \u041a\u0443\u043b\u044c\u0442\u0443\u0440\u044b", "network": "\u041c\u0438\u043d\u0441\u043a\u0438\u0439 \u043c\u0435\u0442\u0440\u043e\u043f\u043e\u043b\u0438\u0442\u0435\u043d", "railway": "subway_entrance", "wheelchair": "yes"}}, {"type": "node", "id": 848502472, "lat": 53.8865214, "lon": 27.5373034, "tags": {"colour": "blue", "name": "\u0406\u043d\u0441\u0442\u044b\u0442\u0443\u0442 \u041a\u0443\u043b\u044c\u0442\u0443\u0440\u044b", "name:be": "\u0406\u043d\u0441\u0442\u044b\u0442\u0443\u0442 \u041a\u0443\u043b\u044c\u0442\u0443\u0440\u044b", "name:ru": "\u0418\u043d\u0441\u0442\u0438\u0442\u0443\u0442 \u041a\u0443\u043b\u044c\u0442\u0443\u0440\u044b", "railway": "subway_entrance", "wheelchair": "yes"}}, {"type": "node", "id": 853052846, "lat": 53.9099875, "lon": 27.5766617, "tags": {"colour": "blue", "int_name": "Plo\u0161\u010da Pieramohi", "name": "\u041f\u043b\u043e\u0448\u0447\u0430 \u041f\u0435\u0440\u0430\u043c\u043e\u0433\u0456", "name:be": "\u041f\u043b\u043e\u0448\u0447\u0430 \u041f\u0435\u0440\u0430\u043c\u043e\u0433\u0456", "name:ru": "\u041f\u043b\u043e\u0449\u0430\u0434\u044c \u041f\u043e\u0431\u0435\u0434\u044b", "network": "\u041c\u0438\u043d\u0441\u043a\u0438\u0439 \u043c\u0435\u0442\u0440\u043e\u043f\u043e\u043b\u0438\u0442\u0435\u043d", "railway": "subway_entrance", "wheelchair": "yes"}}, {"type": "node", "id": 853052933, "lat": 53.9102025, "lon": 27.5769581, "tags": {"colour": "blue", "int_name": "Plo\u0161\u010da Pieramohi", "name": "\u041f\u043b\u043e\u0448\u0447\u0430 \u041f\u0435\u0440\u0430\u043c\u043e\u0433\u0456", "name:be": "\u041f\u043b\u043e\u0448\u0447\u0430 \u041f\u0435\u0440\u0430\u043c\u043e\u0433\u0456", "name:ru": "\u041f\u043b\u043e\u0449\u0430\u0434\u044c \u041f\u043e\u0431\u0435\u0434\u044b", "network": "\u041c\u0438\u043d\u0441\u043a\u0438\u0439 \u043c\u0435\u0442\u0440\u043e\u043f\u043e\u043b\u0438\u0442\u0435\u043d", "railway": "subway_entrance", "wheelchair": "no"}}, {"type": "node", "id": 880780524, "lat": 53.8940251, "lon": 27.5710706, "tags": {"colour": "red", "int_name": "Pier\u0161amajskaja", "name": "\u041f\u0435\u0440\u0432\u043e\u043c\u0430\u0439\u0441\u043a\u0430\u044f", "name:be": "\u041f\u0435\u0440\u0448\u0430\u043c\u0430\u0439\u0441\u043a\u0430\u044f", "name:ru": "\u041f\u0435\u0440\u0432\u043e\u043c\u0430\u0439\u0441\u043a\u0430\u044f", "network": "\u041c\u0438\u043d\u0441\u043a\u0438\u0439 \u043c\u0435\u0442\u0440\u043e\u043f\u043e\u043b\u0438\u0442\u0435\u043d", "railway": "subway_entrance", "wheelchair": "yes"}}, {"type": "node", "id": 880780659, "lat": 53.8942281, "lon": 27.5706769, "tags": {"colour": "red", "int_name": "Pier\u0161amajskaja", "name": "\u041f\u0435\u0440\u0432\u043e\u043c\u0430\u0439\u0441\u043a\u0430\u044f", "name:be": "\u041f\u0435\u0440\u0448\u0430\u043c\u0430\u0439\u0441\u043a\u0430\u044f", "name:ru": "\u041f\u0435\u0440\u0432\u043e\u043c\u0430\u0439\u0441\u043a\u0430\u044f", "network": "\u041c\u0438\u043d\u0441\u043a\u0438\u0439 \u043c\u0435\u0442\u0440\u043e\u043f\u043e\u043b\u0438\u0442\u0435\u043d", "railway": "subway_entrance", "wheelchair": "no"}}, {"type": "node", "id": 897570686, "lat": 53.9449039, "lon": 27.6876625, "tags": {"colour": "blue", "int_name": "Uru\u010d\u010da", "name": "\u0423\u0440\u0443\u0447\u0447\u0430", "name:be": "\u0423\u0440\u0443\u0447\u0447\u0430", "name:ru": "\u0423\u0440\u0443\u0447\u044c\u0435", "network": "\u041c\u0438\u043d\u0441\u043a\u0438\u0439 \u043c\u0435\u0442\u0440\u043e\u043f\u043e\u043b\u0438\u0442\u0435\u043d", "railway": "subway_entrance"}}, {"type": "node", "id": 897570694, "lat": 53.9455453, "lon": 27.689735, "tags": {"colour": "blue", "int_name": "Uru\u010d\u010da", "name": "\u0423\u0440\u0443\u0447\u0447\u0430", "name:be": "\u0423\u0440\u0443\u0447\u0447\u0430", "name:ru": "\u0423\u0440\u0443\u0447\u044c\u0435", "network": "\u041c\u0438\u043d\u0441\u043a\u0438\u0439 \u043c\u0435\u0442\u0440\u043e\u043f\u043e\u043b\u0438\u0442\u0435\u043d", "railway": "subway_entrance"}}, {"type": "node", "id": 897570735, "lat": 53.9452987, "lon": 27.685895, "tags": {"colour": "blue", "int_name": "Uru\u010d\u010da", "name": "\u0423\u0440\u0443\u0447\u0447\u0430", "name:be": "\u0423\u0440\u0443\u0447\u0447\u0430", "name:ru": "\u0423\u0440\u0443\u0447\u044c\u0435", "network": "\u041c\u0438\u043d\u0441\u043a\u0438\u0439 \u043c\u0435\u0442\u0440\u043e\u043f\u043e\u043b\u0438\u0442\u0435\u043d", "railway": "subway_entrance", "wheelchair": "no"}}, {"type": "node", "id": 897570746, "lat": 53.9445661, "lon": 27.6865869, "tags": {"colour": "blue", "int_name": "Uru\u010d\u010da", "name": "\u0423\u0440\u0443\u0447\u0447\u0430", "name:be": "\u0423\u0440\u0443\u0447\u0447\u0430", "name:ru": "\u0423\u0440\u0443\u0447\u044c\u0435", "network": "\u041c\u0438\u043d\u0441\u043a\u0438\u0439 \u043c\u0435\u0442\u0440\u043e\u043f\u043e\u043b\u0438\u0442\u0435\u043d", "railway": "subway_entrance", "wheelchair": "yes"}}, {"type": "node", "id": 897570749, "lat": 53.9455739, "lon": 27.6867808, "tags": {"colour": "blue", "int_name": "Uru\u010d\u010da", "name": "\u0423\u0440\u0443\u0447\u0447\u0430", "name:be": "\u0423\u0440\u0443\u0447\u0447\u0430", "name:ru": "\u0423\u0440\u0443\u0447\u044c\u0435", "network": "\u041c\u0438\u043d\u0441\u043a\u0438\u0439 \u043c\u0435\u0442\u0440\u043e\u043f\u043e\u043b\u0438\u0442\u0435\u043d", "railway": "subway_entrance", "wheelchair": "no"}}, {"type": "node", "id": 897570752, "lat": 53.9462717, "lon": 27.6890081, "tags": {"colour": "blue", "int_name": "Uru\u010d\u010da", "name": "\u0423\u0440\u0443\u0447\u0447\u0430", "name:be": "\u0423\u0440\u0443\u0447\u0447\u0430", "name:ru": "\u0423\u0440\u0443\u0447\u044c\u0435", "network": "\u041c\u0438\u043d\u0441\u043a\u0438\u0439 \u043c\u0435\u0442\u0440\u043e\u043f\u043e\u043b\u0438\u0442\u0435\u043d", "railway": "subway_entrance", "wheelchair": "no"}}, {"type": "node", "id": 897570761, "lat": 53.9452387, "lon": 27.6887333, "tags": {"colour": "blue", "int_name": "Uru\u010d\u010da", "name": "\u0423\u0440\u0443\u0447\u0447\u0430", "name:be": "\u0423\u0440\u0443\u0447\u0447\u0430", "name:ru": "\u0423\u0440\u0443\u0447\u044c\u0435", "network": "\u041c\u0438\u043d\u0441\u043a\u0438\u0439 \u043c\u0435\u0442\u0440\u043e\u043f\u043e\u043b\u0438\u0442\u0435\u043d", "railway": "subway_entrance"}}, {"type": "node", "id": 897570765, "lat": 53.9460338, "lon": 27.6882141, "tags": {"colour": "blue", "int_name": "Uru\u010d\u010da", "name": "\u0423\u0440\u0443\u0447\u0447\u0430", "name:be": "\u0423\u0440\u0443\u0447\u0447\u0430", "name:ru": "\u0423\u0440\u0443\u0447\u044c\u0435", "network": "\u041c\u0438\u043d\u0441\u043a\u0438\u0439 \u043c\u0435\u0442\u0440\u043e\u043f\u043e\u043b\u0438\u0442\u0435\u043d", "railway": "subway_entrance", "wheelchair": "yes"}}, {"type": "node", "id": 951804212, "lat": 53.8947106, "lon": 27.5481782, "tags": {"colour": "blue", "name": "\u041f\u043b\u043e\u0448\u0447\u0430 \u041b\u0435\u043d\u0456\u043d\u0430", "name:be": "\u041f\u043b\u043e\u0448\u0447\u0430 \u041b\u0435\u043d\u0456\u043d\u0430", "name:ru": "\u041f\u043b\u043e\u0449\u0430\u0434\u044c \u041b\u0435\u043d\u0438\u043d\u0430", "network": "\u041c\u0438\u043d\u0441\u043a\u0438\u0439 \u043c\u0435\u0442\u0440\u043e\u043f\u043e\u043b\u0438\u0442\u0435\u043d", "railway": "subway_entrance", "wheelchair": "yes"}}, {"type": "node", "id": 977707683, "lat": 53.927308, "lon": 27.6259944, "tags": {"colour": "blue", "int_name": "Masko\u016dskaja", "name": "\u041c\u0430\u0441\u043a\u043e\u045e\u0441\u043a\u0430\u044f", "name:be": "\u041c\u0430\u0441\u043a\u043e\u045e\u0441\u043a\u0430\u044f", "name:ru": "\u041c\u043e\u0441\u043a\u043e\u0432\u0441\u043a\u0430\u044f", "network": "\u041c\u0438\u043d\u0441\u043a\u0438\u0439 \u043c\u0435\u0442\u0440\u043e\u043f\u043e\u043b\u0438\u0442\u0435\u043d", "railway": "subway_entrance", "wheelchair": "yes"}}, {"type": "node", "id": 977707800, "lat": 53.9275864, "lon": 27.6257796, "tags": {"colour": "blue", "int_name": "Masko\u016dskaja", "name": "\u041c\u0430\u0441\u043a\u043e\u045e\u0441\u043a\u0430\u044f", "name:be": "\u041c\u0430\u0441\u043a\u043e\u045e\u0441\u043a\u0430\u044f", "name:ru": "\u041c\u043e\u0441\u043a\u043e\u0432\u0441\u043a\u0430\u044f", "network": "\u041c\u0438\u043d\u0441\u043a\u0438\u0439 \u043c\u0435\u0442\u0440\u043e\u043f\u043e\u043b\u0438\u0442\u0435\u043d", "railway": "subway_entrance", "wheelchair": "no"}}, {"type": "node", "id": 977707880, "lat": 53.9275521, "lon": 27.626871, "tags": {"colour": "blue", "int_name": "Masko\u016dskaja", "name": "\u041c\u0430\u0441\u043a\u043e\u045e\u0441\u043a\u0430\u044f", "name:be": "\u041c\u0430\u0441\u043a\u043e\u045e\u0441\u043a\u0430\u044f", "name:ru": "\u041c\u043e\u0441\u043a\u043e\u0432\u0441\u043a\u0430\u044f", "network": "\u041c\u0438\u043d\u0441\u043a\u0438\u0439 \u043c\u0435\u0442\u0440\u043e\u043f\u043e\u043b\u0438\u0442\u0435\u043d", "railway": "subway_entrance"}}, {"type": "node", "id": 977708098, "lat": 53.9278072, "lon": 27.6265988, "tags": {"colour": "blue", "int_name": "Masko\u016dskaja", "name": "\u041c\u0430\u0441\u043a\u043e\u045e\u0441\u043a\u0430\u044f", "name:be": "\u041c\u0430\u0441\u043a\u043e\u045e\u0441\u043a\u0430\u044f", "name:ru": "\u041c\u043e\u0441\u043a\u043e\u0432\u0441\u043a\u0430\u044f", "network": "\u041c\u0438\u043d\u0441\u043a\u0438\u0439 \u043c\u0435\u0442\u0440\u043e\u043f\u043e\u043b\u0438\u0442\u0435\u043d", "railway": "subway_entrance", "wheelchair": "limited"}}, {"type": "node", "id": 1113122685, "lat": 53.9338277, "lon": 27.6499729, "tags": {"colour": "blue", "int_name": "Uschod", "name": "\u0423\u0441\u0445\u043e\u0434", "name:be": "\u0423\u0441\u0445\u043e\u0434", "name:ru": "\u0412\u043e\u0441\u0442\u043e\u043a", "network": "\u041c\u0438\u043d\u0441\u043a\u0438\u0439 \u043c\u0435\u0442\u0440\u043e\u043f\u043e\u043b\u0438\u0442\u0435\u043d", "railway": "subway_entrance", "ref": "1-1", "wheelchair": "yes"}}, {"type": "node", "id": 1113122694, "lat": 53.933976, "lon": 27.6505239, "tags": {"colour": "blue", "int_name": "Uschod", "name": "\u0423\u0441\u0445\u043e\u0434", "name:be": "\u0423\u0441\u0445\u043e\u0434", "name:ru": "\u0412\u043e\u0441\u0442\u043e\u043a", "network": "\u041c\u0438\u043d\u0441\u043a\u0438\u0439 \u043c\u0435\u0442\u0440\u043e\u043f\u043e\u043b\u0438\u0442\u0435\u043d", "railway": "subway_entrance", "ref": "1-2", "wheelchair": "no"}}, {"type": "node", "id": 1113128793, "lat": 53.9346398, "lon": 27.6529708, "tags": {"colour": "blue", "int_name": "Uschod", "name": "\u0423\u0441\u0445\u043e\u0434", "name:be": "\u0423\u0441\u0445\u043e\u0434", "name:ru": "\u0412\u043e\u0441\u0442\u043e\u043a", "network": "\u041c\u0438\u043d\u0441\u043a\u0438\u0439 \u043c\u0435\u0442\u0440\u043e\u043f\u043e\u043b\u0438\u0442\u0435\u043d", "railway": "subway_entrance", "ref": "3-2", "wheelchair": "no"}}, {"type": "node", "id": 1113128802, "lat": 53.9344973, "lon": 27.652438, "tags": {"colour": "blue", "int_name": "Uschod", "name": "\u0423\u0441\u0445\u043e\u0434", "name:be": "\u0423\u0441\u0445\u043e\u0434", "name:ru": "\u0412\u043e\u0441\u0442\u043e\u043a", "network": "\u041c\u0438\u043d\u0441\u043a\u0438\u0439 \u043c\u0435\u0442\u0440\u043e\u043f\u043e\u043b\u0438\u0442\u0435\u043d", "railway": "subway_entrance", "ref": "3-1", "wheelchair": "yes"}}, {"type": "node", "id": 1119753405, "lat": 53.9066111, "lon": 27.4387717, "tags": {"colour": "red", "int_name": "Kamiennaja Horka", "name": "\u041a\u0430\u043c\u0435\u043d\u043d\u0430\u044f \u0413\u043e\u0440\u043a\u0430", "name:be": "\u041a\u0430\u043c\u0435\u043d\u043d\u0430\u044f \u0413\u043e\u0440\u043a\u0430", "name:ru": "\u041a\u0430\u043c\u0435\u043d\u043d\u0430\u044f \u0413\u043e\u0440\u043a\u0430", "network": "\u041c\u0438\u043d\u0441\u043a\u0438\u0439 \u043c\u0435\u0442\u0440\u043e\u043f\u043e\u043b\u0438\u0442\u0435\u043d", "railway": "subway_entrance", "wheelchair": "no"}}, {"type": "node", "id": 1119753644, "lat": 53.9070857, "lon": 27.4395839, "tags": {"colour": "red", "int_name": "Kamiennaja Horka", "name": "\u041a\u0430\u043c\u0435\u043d\u043d\u0430\u044f \u0413\u043e\u0440\u043a\u0430", "name:be": "\u041a\u0430\u043c\u0435\u043d\u043d\u0430\u044f \u0413\u043e\u0440\u043a\u0430", "name:ru": "\u041a\u0430\u043c\u0435\u043d\u043d\u0430\u044f \u0413\u043e\u0440\u043a\u0430", "network": "\u041c\u0438\u043d\u0441\u043a\u0438\u0439 \u043c\u0435\u0442\u0440\u043e\u043f\u043e\u043b\u0438\u0442\u0435\u043d", "railway": "subway_entrance", "wheelchair": "yes"}}, {"type": "node", "id": 1119753948, "lat": 53.9071223, "lon": 27.4388189, "tags": {"check_date:wheelchair": "2022-09-24", "colour": "red", "int_name": "Kamiennaja Horka", "name": "\u041a\u0430\u043c\u0435\u043d\u043d\u0430\u044f \u0413\u043e\u0440\u043a\u0430", "name:be": "\u041a\u0430\u043c\u0435\u043d\u043d\u0430\u044f \u0413\u043e\u0440\u043a\u0430", "name:ru": "\u041a\u0430\u043c\u0435\u043d\u043d\u0430\u044f \u0413\u043e\u0440\u043a\u0430", "network": "\u041c\u0438\u043d\u0441\u043a\u0438\u0439 \u043c\u0435\u0442\u0440\u043e\u043f\u043e\u043b\u0438\u0442\u0435\u043d", "railway": "subway_entrance", "wheelchair": "no"}}, {"type": "node", "id": 1119754198, "lat": 53.9065771, "lon": 27.4394757, "tags": {"colour": "red", "int_name": "Kamiennaja Horka", "name": "\u041a\u0430\u043c\u0435\u043d\u043d\u0430\u044f \u0413\u043e\u0440\u043a\u0430", "name:be": "\u041a\u0430\u043c\u0435\u043d\u043d\u0430\u044f \u0413\u043e\u0440\u043a\u0430", "name:ru": "\u041a\u0430\u043c\u0435\u043d\u043d\u0430\u044f \u0413\u043e\u0440\u043a\u0430", "network": "\u041c\u0438\u043d\u0441\u043a\u0438\u0439 \u043c\u0435\u0442\u0440\u043e\u043f\u043e\u043b\u0438\u0442\u0435\u043d", "railway": "subway_entrance", "wheelchair": "limited"}}, {"type": "node", "id": 1180352552, "lat": 53.906597, "lon": 27.5211834, "tags": {"colour": "red", "int_name": "Maladzio\u017enaja", "name": "\u041c\u043e\u043b\u043e\u0434\u0451\u0436\u043d\u0430\u044f", "name:be": "\u041c\u0430\u043b\u0430\u0434\u0437\u0451\u0436\u043d\u0430\u044f", "name:ru": "\u041c\u043e\u043b\u043e\u0434\u0451\u0436\u043d\u0430\u044f", "network": "\u041c\u0438\u043d\u0441\u043a\u0438\u0439 \u043c\u0435\u0442\u0440\u043e\u043f\u043e\u043b\u0438\u0442\u0435\u043d", "railway": "subway_entrance"}}, {"type": "node", "id": 1180352635, "lat": 53.9063189, "lon": 27.5214538, "tags": {"colour": "red", "int_name": "Maladzio\u017enaja", "name": "\u041c\u043e\u043b\u043e\u0434\u0451\u0436\u043d\u0430\u044f", "name:be": "\u041c\u0430\u043b\u0430\u0434\u0437\u0451\u0436\u043d\u0430\u044f", "name:ru": "\u041c\u043e\u043b\u043e\u0434\u0451\u0436\u043d\u0430\u044f", "network": "\u041c\u0438\u043d\u0441\u043a\u0438\u0439 \u043c\u0435\u0442\u0440\u043e\u043f\u043e\u043b\u0438\u0442\u0435\u043d", "railway": "subway_entrance"}}, {"type": "node", "id": 1256857275, "lat": 53.9284887, "lon": 27.6290343, "tags": {"colour": "blue", "int_name": "Masko\u016dskaja", "name": "\u041c\u0430\u0441\u043a\u043e\u045e\u0441\u043a\u0430\u044f", "name:be": "\u041c\u0430\u0441\u043a\u043e\u045e\u0441\u043a\u0430\u044f", "name:ru": "\u041c\u043e\u0441\u043a\u043e\u0432\u0441\u043a\u0430\u044f", "network": "\u041c\u0438\u043d\u0441\u043a\u0438\u0439 \u043c\u0435\u0442\u0440\u043e\u043f\u043e\u043b\u0438\u0442\u0435\u043d", "railway": "subway_entrance"}}, {"type": "node", "id": 1285463739, "lat": 53.9160763, "lon": 27.5851459, "tags": {"colour": "blue", "int_name": "plo\u0161\u010da Jakuba Kolasa", "name": "\u041f\u043b\u043e\u0449\u0430\u0434\u044c \u042f\u043a\u0443\u0431\u0430 \u041a\u043e\u043b\u0430\u0441\u0430", "name:be": "\u041f\u043b\u043e\u0448\u0447\u0430 \u042f\u043a\u0443\u0431\u0430 \u041a\u043e\u043b\u0430\u0441\u0430", "name:ru": "\u041f\u043b\u043e\u0449\u0430\u0434\u044c \u042f\u043a\u0443\u0431\u0430 \u041a\u043e\u043b\u0430\u0441\u0430", "network": "\u041c\u0438\u043d\u0441\u043a\u0438\u0439 \u043c\u0435\u0442\u0440\u043e\u043f\u043e\u043b\u0438\u0442\u0435\u043d", "railway": "subway_entrance"}}, {"type": "node", "id": 1285463741, "lat": 53.9161437, "lon": 27.585242, "tags": {"colour": "blue", "int_name": "plo\u0161\u010da Jakuba Kolasa", "name": "\u041f\u043b\u043e\u0449\u0430\u0434\u044c \u042f\u043a\u0443\u0431\u0430 \u041a\u043e\u043b\u0430\u0441\u0430", "name:be": "\u041f\u043b\u043e\u0448\u0447\u0430 \u042f\u043a\u0443\u0431\u0430 \u041a\u043e\u043b\u0430\u0441\u0430", "name:ru": "\u041f\u043b\u043e\u0449\u0430\u0434\u044c \u042f\u043a\u0443\u0431\u0430 \u041a\u043e\u043b\u0430\u0441\u0430", "network": "\u041c\u0438\u043d\u0441\u043a\u0438\u0439 \u043c\u0435\u0442\u0440\u043e\u043f\u043e\u043b\u0438\u0442\u0435\u043d", "railway": "subway_entrance"}}, {"type": "node", "id": 1347501447, "lat": 53.8767435, "lon": 27.6272406, "tags": {"colour": "red", "int_name": "Partyzanskaja", "name": "\u041f\u0430\u0440\u0442\u0438\u0437\u0430\u043d\u0441\u043a\u0430\u044f", "name:be": "\u041f\u0430\u0440\u0442\u044b\u0437\u0430\u043d\u0441\u043a\u0430\u044f", "name:ru": "\u041f\u0430\u0440\u0442\u0438\u0437\u0430\u043d\u0441\u043a\u0430\u044f", "network": "\u041c\u0438\u043d\u0441\u043a\u0438\u0439 \u043c\u0435\u0442\u0440\u043e\u043f\u043e\u043b\u0438\u0442\u0435\u043d", "railway": "subway_entrance"}}, {"type": "node", "id": 1382274481, "lat": 53.8860921, "lon": 27.5374843, "tags": {"colour": "blue", "int_name": "Instytut Ku\u013atury", "name": "\u0406\u043d\u0441\u0442\u044b\u0442\u0443\u0442 \u041a\u0443\u043b\u044c\u0442\u0443\u0440\u044b", "name:be": "\u0406\u043d\u0441\u0442\u044b\u0442\u0443\u0442 \u041a\u0443\u043b\u044c\u0442\u0443\u0440\u044b", "name:ru": "\u0418\u043d\u0441\u0442\u0438\u0442\u0443\u0442 \u041a\u0443\u043b\u044c\u0442\u0443\u0440\u044b", "network": "\u041c\u0438\u043d\u0441\u043a\u0438\u0439 \u043c\u0435\u0442\u0440\u043e\u043f\u043e\u043b\u0438\u0442\u0435\u043d", "railway": "subway_entrance", "wheelchair": "no"}}, {"type": "node", "id": 1635225344, "lat": 53.9061351, "lon": 27.5256918, "tags": {"colour": "red", "int_name": "Maladzio\u017enaja", "name": "\u041c\u043e\u043b\u043e\u0434\u0451\u0436\u043d\u0430\u044f", "name:be": "\u041c\u0430\u043b\u0430\u0434\u0437\u0451\u0436\u043d\u0430\u044f", "name:ru": "\u041c\u043e\u043b\u043e\u0434\u0451\u0436\u043d\u0430\u044f", "network": "\u041c\u0438\u043d\u0441\u043a\u0438\u0439 \u043c\u0435\u0442\u0440\u043e\u043f\u043e\u043b\u0438\u0442\u0435\u043d", "railway": "subway_entrance", "wheelchair": "yes"}}, {"type": "node", "id": 1638811341, "lat": 53.8768169, "lon": 27.6279028, "tags": {"colour": "red", "int_name": "Partyzanskaja", "name": "\u041f\u0430\u0440\u0442\u0438\u0437\u0430\u043d\u0441\u043a\u0430\u044f", "name:be": "\u041f\u0430\u0440\u0442\u044b\u0437\u0430\u043d\u0441\u043a\u0430\u044f", "name:ru": "\u041f\u0430\u0440\u0442\u0438\u0437\u0430\u043d\u0441\u043a\u0430\u044f", "network": "\u041c\u0438\u043d\u0441\u043a\u0438\u0439 \u043c\u0435\u0442\u0440\u043e\u043f\u043e\u043b\u0438\u0442\u0435\u043d", "railway": "subway_entrance"}}, {"type": "node", "id": 1783406129, "lat": 53.9073863, "lon": 27.4350486, "tags": {"colour": "red", "int_name": "Kamiennaja Horka", "name": "\u041a\u0430\u043c\u0435\u043d\u043d\u0430\u044f \u0413\u043e\u0440\u043a\u0430", "name:be": "\u041a\u0430\u043c\u0435\u043d\u043d\u0430\u044f \u0413\u043e\u0440\u043a\u0430", "name:ru": "\u041a\u0430\u043c\u0435\u043d\u043d\u0430\u044f \u0413\u043e\u0440\u043a\u0430", "network": "\u041c\u0438\u043d\u0441\u043a\u0438\u0439 \u043c\u0435\u0442\u0440\u043e\u043f\u043e\u043b\u0438\u0442\u0435\u043d", "railway": "subway_entrance", "wheelchair": "yes"}}, {"type": "node", "id": 1786142244, "lat": 53.8620741, "lon": 27.6751423, "tags": {"colour": "red", "int_name": "Mahilio\u016dskaja", "name": "\u041c\u043e\u0433\u0438\u043b\u0451\u0432\u0441\u043a\u0430\u044f", "name:be": "\u041c\u0430\u0433\u0456\u043b\u0451\u045e\u0441\u043a\u0430\u044f", "name:ru": "\u041c\u043e\u0433\u0438\u043b\u0451\u0432\u0441\u043a\u0430\u044f", "network": "\u041c\u0438\u043d\u0441\u043a\u0438\u0439 \u043c\u0435\u0442\u0440\u043e\u043f\u043e\u043b\u0438\u0442\u0435\u043d", "railway": "subway_entrance"}}, {"type": "node", "id": 1821354655, "lat": 53.8866979, "lon": 27.5140153, "tags": {"colour": "blue", "int_name": "Hru\u0161a\u016dka", "name": "\u0413\u0440\u0443\u0448\u0435\u0432\u043a\u0430", "name:be": "\u0413\u0440\u0443\u0448\u0430\u045e\u043a\u0430", "name:ru": "\u0413\u0440\u0443\u0448\u0435\u0432\u043a\u0430", "network": "\u041c\u0438\u043d\u0441\u043a\u0438\u0439 \u043c\u0435\u0442\u0440\u043e\u043f\u043e\u043b\u0438\u0442\u0435\u043d", "railway": "subway_entrance", "wheelchair": "yes"}}, {"type": "node", "id": 1822083190, "lat": 53.9168199, "lon": 27.5852641, "tags": {"colour": "blue", "int_name": "plo\u0161\u010da Jakuba Kolasa", "name": "\u041f\u043b\u043e\u0449\u0430\u0434\u044c \u042f\u043a\u0443\u0431\u0430 \u041a\u043e\u043b\u0430\u0441\u0430", "name:be": "\u041f\u043b\u043e\u0448\u0447\u0430 \u042f\u043a\u0443\u0431\u0430 \u041a\u043e\u043b\u0430\u0441\u0430", "name:ru": "\u041f\u043b\u043e\u0449\u0430\u0434\u044c \u042f\u043a\u0443\u0431\u0430 \u041a\u043e\u043b\u0430\u0441\u0430", "network": "\u041c\u0438\u043d\u0441\u043a\u0438\u0439 \u043c\u0435\u0442\u0440\u043e\u043f\u043e\u043b\u0438\u0442\u0435\u043d", "railway": "subway_entrance", "wheelchair": "yes"}}, {"type": "node", "id": 1838821286, "lat": 53.8905472, "lon": 27.614249, "tags": {"colour": "red", "int_name": "Traktarny zavod", "name": "\u0422\u0440\u0430\u043a\u0442\u043e\u0440\u043d\u044b\u0439 \u0437\u0430\u0432\u043e\u0434", "name:be": "\u0422\u0440\u0430\u043a\u0442\u0430\u0440\u043d\u044b \u0437\u0430\u0432\u043e\u0434", "name:ru": "\u0422\u0440\u0430\u043a\u0442\u043e\u0440\u043d\u044b\u0439 \u0437\u0430\u0432\u043e\u0434", "network": "\u041c\u0438\u043d\u0441\u043a\u0438\u0439 \u043c\u0435\u0442\u0440\u043e\u043f\u043e\u043b\u0438\u0442\u0435\u043d", "railway": "subway_entrance"}}, {"type": "node", "id": 1838821347, "lat": 53.8909234, "lon": 27.6138018, "tags": {"colour": "red", "int_name": "Traktarny zavod", "name": "\u0422\u0440\u0430\u043a\u0442\u043e\u0440\u043d\u044b\u0439 \u0437\u0430\u0432\u043e\u0434", "name:be": "\u0422\u0440\u0430\u043a\u0442\u0430\u0440\u043d\u044b \u0437\u0430\u0432\u043e\u0434", "name:ru": "\u0422\u0440\u0430\u043a\u0442\u043e\u0440\u043d\u044b\u0439 \u0437\u0430\u0432\u043e\u0434", "network": "\u041c\u0438\u043d\u0441\u043a\u0438\u0439 \u043c\u0435\u0442\u0440\u043e\u043f\u043e\u043b\u0438\u0442\u0435\u043d", "railway": "subway_entrance", "wheelchair": "no"}}, {"type": "node", "id": 2012415463, "lat": 53.9061689, "lon": 27.5258373, "tags": {"colour": "red", "int_name": "Maladzio\u017enaja", "name": "\u041c\u043e\u043b\u043e\u0434\u0451\u0436\u043d\u0430\u044f", "name:be": "\u041c\u0430\u043b\u0430\u0434\u0437\u0451\u0436\u043d\u0430\u044f", "name:ru": "\u041c\u043e\u043b\u043e\u0434\u0451\u0436\u043d\u0430\u044f", "network": "\u041c\u0438\u043d\u0441\u043a\u0438\u0439 \u043c\u0435\u0442\u0440\u043e\u043f\u043e\u043b\u0438\u0442\u0435\u043d", "railway": "subway_entrance", "wheelchair": "yes"}}, {"type": "node", "id": 2012415465, "lat": 53.9059226, "lon": 27.523898, "tags": {"colour": "red", "int_name": "Maladzio\u017enaja", "name": "\u041c\u043e\u043b\u043e\u0434\u0451\u0436\u043d\u0430\u044f", "name:be": "\u041c\u0430\u043b\u0430\u0434\u0437\u0451\u0436\u043d\u0430\u044f", "name:ru": "\u041c\u043e\u043b\u043e\u0434\u0451\u0436\u043d\u0430\u044f", "network": "\u041c\u0438\u043d\u0441\u043a\u0438\u0439 \u043c\u0435\u0442\u0440\u043e\u043f\u043e\u043b\u0438\u0442\u0435\u043d", "railway": "subway_entrance"}}, {"type": "node", "id": 2140026018, "lat": 53.8650663, "lon": 27.4870595, "tags": {"colour": "blue", "int_name": "Piatro\u016d\u0161\u010dyna", "name": "\u041f\u0435\u0442\u0440\u043e\u0432\u0449\u0438\u043d\u0430", "name:be": "\u041f\u044f\u0442\u0440\u043e\u045e\u0448\u0447\u044b\u043d\u0430", "name:ru": "\u041f\u0435\u0442\u0440\u043e\u0432\u0449\u0438\u043d\u0430", "network": "\u041c\u0438\u043d\u0441\u043a\u0438\u0439 \u043c\u0435\u0442\u0440\u043e\u043f\u043e\u043b\u0438\u0442\u0435\u043d", "railway": "subway_entrance"}}, {"type": "node", "id": 2140026021, "lat": 53.8635401, "lon": 27.4852972, "tags": {"colour": "blue", "int_name": "Piatro\u016d\u0161\u010dyna", "name": "\u041f\u0435\u0442\u0440\u043e\u0432\u0449\u0438\u043d\u0430", "name:be": "\u041f\u044f\u0442\u0440\u043e\u045e\u0448\u0447\u044b\u043d\u0430", "name:ru": "\u041f\u0435\u0442\u0440\u043e\u0432\u0449\u0438\u043d\u0430", "network": "\u041c\u0438\u043d\u0441\u043a\u0438\u0439 \u043c\u0435\u0442\u0440\u043e\u043f\u043e\u043b\u0438\u0442\u0435\u043d", "railway": "subway_entrance", "wheelchair": "yes"}}, {"type": "node", "id": 2140026028, "lat": 53.8645586, "lon": 27.4848494, "tags": {"colour": "blue", "int_name": "Piatro\u016d\u0161\u010dyna", "name": "\u041f\u0435\u0442\u0440\u043e\u0432\u0449\u0438\u043d\u0430", "name:be": "\u041f\u044f\u0442\u0440\u043e\u045e\u0448\u0447\u044b\u043d\u0430", "name:ru": "\u041f\u0435\u0442\u0440\u043e\u0432\u0449\u0438\u043d\u0430", "network": "\u041c\u0438\u043d\u0441\u043a\u0438\u0439 \u043c\u0435\u0442\u0440\u043e\u043f\u043e\u043b\u0438\u0442\u0435\u043d", "railway": "subway_entrance"}}, {"type": "node", "id": 2140026029, "lat": 53.8656834, "lon": 27.4868824, "tags": {"colour": "blue", "int_name": "Piatro\u016d\u0161\u010dyna", "name": "\u041f\u0435\u0442\u0440\u043e\u0432\u0449\u0438\u043d\u0430", "name:be": "\u041f\u044f\u0442\u0440\u043e\u045e\u0448\u0447\u044b\u043d\u0430", "name:ru": "\u041f\u0435\u0442\u0440\u043e\u0432\u0449\u0438\u043d\u0430", "network": "\u041c\u0438\u043d\u0441\u043a\u0438\u0439 \u043c\u0435\u0442\u0440\u043e\u043f\u043e\u043b\u0438\u0442\u0435\u043d", "railway": "subway_entrance"}}, {"type": "node", "id": 2140026030, "lat": 53.8653519, "lon": 27.4865007, "tags": {"colour": "blue", "int_name": "Piatro\u016d\u0161\u010dyna", "name": "\u041f\u0435\u0442\u0440\u043e\u0432\u0449\u0438\u043d\u0430", "name:be": "\u041f\u044f\u0442\u0440\u043e\u045e\u0448\u0447\u044b\u043d\u0430", "name:ru": "\u041f\u0435\u0442\u0440\u043e\u0432\u0449\u0438\u043d\u0430", "network": "\u041c\u0438\u043d\u0441\u043a\u0438\u0439 \u043c\u0435\u0442\u0440\u043e\u043f\u043e\u043b\u0438\u0442\u0435\u043d", "railway": "subway_entrance"}}, {"type": "node", "id": 2140026034, "lat": 53.8645654, "lon": 27.4852823, "tags": {"colour": "blue", "int_name": "Piatro\u016d\u0161\u010dyna", "name": "\u041f\u0435\u0442\u0440\u043e\u0432\u0449\u0438\u043d\u0430", "name:be": "\u041f\u044f\u0442\u0440\u043e\u045e\u0448\u0447\u044b\u043d\u0430", "name:ru": "\u041f\u0435\u0442\u0440\u043e\u0432\u0449\u0438\u043d\u0430", "network": "\u041c\u0438\u043d\u0441\u043a\u0438\u0439 \u043c\u0435\u0442\u0440\u043e\u043f\u043e\u043b\u0438\u0442\u0435\u043d", "railway": "subway_entrance", "wheelchair": "yes"}}, {"type": "node", "id": 2140026035, "lat": 53.8642797, "lon": 27.4861705, "tags": {"colour": "blue", "int_name": "Piatro\u016d\u0161\u010dyna", "name": "\u041f\u0435\u0442\u0440\u043e\u0432\u0449\u0438\u043d\u0430", "name:be": "\u041f\u044f\u0442\u0440\u043e\u045e\u0448\u0447\u044b\u043d\u0430", "name:ru": "\u041f\u0435\u0442\u0440\u043e\u0432\u0449\u0438\u043d\u0430", "network": "\u041c\u0438\u043d\u0441\u043a\u0438\u0439 \u043c\u0435\u0442\u0440\u043e\u043f\u043e\u043b\u0438\u0442\u0435\u043d", "railway": "subway_entrance", "wheelchair": "yes"}}, {"type": "node", "id": 2140038317, "lat": 53.8643006, "lon": 27.4845299, "tags": {"colour": "blue", "int_name": "Piatro\u016d\u0161\u010dyna", "name": "\u041f\u0435\u0442\u0440\u043e\u0432\u0449\u0438\u043d\u0430", "name:be": "\u041f\u044f\u0442\u0440\u043e\u045e\u0448\u0447\u044b\u043d\u0430", "name:ru": "\u041f\u0435\u0442\u0440\u043e\u0432\u0449\u0438\u043d\u0430", "network": "\u041c\u0438\u043d\u0441\u043a\u0438\u0439 \u043c\u0435\u0442\u0440\u043e\u043f\u043e\u043b\u0438\u0442\u0435\u043d", "railway": "subway_entrance"}}, {"type": "node", "id": 2142620026, "lat": 53.8871122, "lon": 27.515251, "tags": {"colour": "blue", "int_name": "Hru\u0161a\u016dka", "name": "\u0413\u0440\u0443\u0448\u0435\u0432\u043a\u0430", "name:be": "\u0413\u0440\u0443\u0448\u0430\u045e\u043a\u0430", "name:ru": "\u0413\u0440\u0443\u0448\u0435\u0432\u043a\u0430", "network": "\u041c\u0438\u043d\u0441\u043a\u0438\u0439 \u043c\u0435\u0442\u0440\u043e\u043f\u043e\u043b\u0438\u0442\u0435\u043d", "railway": "subway_entrance", "wheelchair": "yes"}}, {"type": "node", "id": 2142620029, "lat": 53.8863076, "lon": 27.51438, "tags": {"colour": "blue", "int_name": "Hru\u0161a\u016dka", "name": "\u0413\u0440\u0443\u0448\u0435\u0432\u043a\u0430", "name:be": "\u0413\u0440\u0443\u0448\u0430\u045e\u043a\u0430", "name:ru": "\u0413\u0440\u0443\u0448\u0435\u0432\u043a\u0430", "network": "\u041c\u0438\u043d\u0441\u043a\u0438\u0439 \u043c\u0435\u0442\u0440\u043e\u043f\u043e\u043b\u0438\u0442\u0435\u043d", "railway": "subway_entrance", "wheelchair": "yes"}}, {"type": "node", "id": 2142620916, "lat": 53.8867249, "lon": 27.5155377, "tags": {"colour": "blue", "int_name": "Hru\u0161a\u016dka", "name": "\u0413\u0440\u0443\u0448\u0435\u0432\u043a\u0430", "name:be": "\u0413\u0440\u0443\u0448\u0430\u045e\u043a\u0430", "name:ru": "\u0413\u0440\u0443\u0448\u0435\u0432\u043a\u0430", "network": "\u041c\u0438\u043d\u0441\u043a\u0438\u0439 \u043c\u0435\u0442\u0440\u043e\u043f\u043e\u043b\u0438\u0442\u0435\u043d", "railway": "subway_entrance", "wheelchair": "yes"}}, {"type": "node", "id": 2148853993, "lat": 53.9098319, "lon": 27.5770575, "tags": {"colour": "blue", "int_name": "Plo\u0161\u010da Pieramohi", "name": "\u041f\u043b\u043e\u0448\u0447\u0430 \u041f\u0435\u0440\u0430\u043c\u043e\u0433\u0456", "name:be": "\u041f\u043b\u043e\u0448\u0447\u0430 \u041f\u0435\u0440\u0430\u043c\u043e\u0433\u0456", "name:ru": "\u041f\u043b\u043e\u0449\u0430\u0434\u044c \u041f\u043e\u0431\u0435\u0434\u044b", "network": "\u041c\u0438\u043d\u0441\u043a\u0438\u0439 \u043c\u0435\u0442\u0440\u043e\u043f\u043e\u043b\u0438\u0442\u0435\u043d", "railway": "subway_entrance", "wheelchair": "yes"}}, {"type": "node", "id": 2148853994, "lat": 53.9100329, "lon": 27.5773347, "tags": {"colour": "blue", "int_name": "Plo\u0161\u010da Pieramohi", "name": "\u041f\u043b\u043e\u0448\u0447\u0430 \u041f\u0435\u0440\u0430\u043c\u043e\u0433\u0456", "name:be": "\u041f\u043b\u043e\u0448\u0447\u0430 \u041f\u0435\u0440\u0430\u043c\u043e\u0433\u0456", "name:ru": "\u041f\u043b\u043e\u0449\u0430\u0434\u044c \u041f\u043e\u0431\u0435\u0434\u044b", "network": "\u041c\u0438\u043d\u0441\u043a\u0438\u0439 \u043c\u0435\u0442\u0440\u043e\u043f\u043e\u043b\u0438\u0442\u0435\u043d", "railway": "subway_entrance", "wheelchair": "no"}}, {"type": "node", "id": 2341070998, "lat": 53.9056926, "lon": 27.5243054, "tags": {"colour": "red", "int_name": "Maladzio\u017enaja", "name": "\u041c\u043e\u043b\u043e\u0434\u0451\u0436\u043d\u0430\u044f", "name:be": "\u041c\u0430\u043b\u0430\u0434\u0437\u0451\u0436\u043d\u0430\u044f", "name:ru": "\u041c\u043e\u043b\u043e\u0434\u0451\u0436\u043d\u0430\u044f", "network": "\u041c\u0438\u043d\u0441\u043a\u0438\u0439 \u043c\u0435\u0442\u0440\u043e\u043f\u043e\u043b\u0438\u0442\u0435\u043d", "railway": "subway_entrance"}}, {"type": "node", "id": 2357639062, "lat": 53.8910341, "lon": 27.5848956, "tags": {"colour": "red", "int_name": "Pralietarskaja", "name": "\u041f\u0440\u043e\u043b\u0435\u0442\u0430\u0440\u0441\u043a\u0430\u044f", "name:be": "\u041f\u0440\u0430\u043b\u0435\u0442\u0430\u0440\u0441\u043a\u0430\u044f", "name:en": "Proletarskaya", "name:ru": "\u041f\u0440\u043e\u043b\u0435\u0442\u0430\u0440\u0441\u043a\u0430\u044f", "network": "\u041c\u0438\u043d\u0441\u043a\u0438\u0439 \u043c\u0435\u0442\u0440\u043e\u043f\u043e\u043b\u0438\u0442\u0435\u043d", "railway": "subway_entrance"}}, {"type": "node", "id": 2388172995, "lat": 53.8853897, "lon": 27.5398423, "tags": {"colour": "blue", "int_name": "Instytut Ku\u013atury", "name": "\u0406\u043d\u0441\u0442\u044b\u0442\u0443\u0442 \u041a\u0443\u043b\u044c\u0442\u0443\u0440\u044b", "name:be": "\u0406\u043d\u0441\u0442\u044b\u0442\u0443\u0442 \u041a\u0443\u043b\u044c\u0442\u0443\u0440\u044b", "name:ru": "\u0418\u043d\u0441\u0442\u0438\u0442\u0443\u0442 \u041a\u0443\u043b\u044c\u0442\u0443\u0440\u044b", "network": "\u041c\u0438\u043d\u0441\u043a\u0438\u0439 \u043c\u0435\u0442\u0440\u043e\u043f\u043e\u043b\u0438\u0442\u0435\u043d", "railway": "subway_entrance", "wheelchair": "yes"}}, {"type": "node", "id": 2388172997, "lat": 53.8852248, "lon": 27.5393212, "tags": {"colour": "blue", "int_name": "Instytut Ku\u013atury", "name": "\u0406\u043d\u0441\u0442\u044b\u0442\u0443\u0442 \u041a\u0443\u043b\u044c\u0442\u0443\u0440\u044b", "name:be": "\u0406\u043d\u0441\u0442\u044b\u0442\u0443\u0442 \u041a\u0443\u043b\u044c\u0442\u0443\u0440\u044b", "name:ru": "\u0418\u043d\u0441\u0442\u0438\u0442\u0443\u0442 \u041a\u0443\u043b\u044c\u0442\u0443\u0440\u044b", "network": "\u041c\u0438\u043d\u0441\u043a\u0438\u0439 \u043c\u0435\u0442\u0440\u043e\u043f\u043e\u043b\u0438\u0442\u0435\u043d", "railway": "subway_entrance", "wheelchair": "no"}}, {"type": "node", "id": 2415195845, "lat": 53.9067911, "lon": 27.5259112, "tags": {"colour": "red", "int_name": "Maladzio\u017enaja", "name": "\u041c\u043e\u043b\u043e\u0434\u0451\u0436\u043d\u0430\u044f", "name:be": "\u041c\u0430\u043b\u0430\u0434\u0437\u0451\u0436\u043d\u0430\u044f", "name:ru": "\u041c\u043e\u043b\u043e\u0434\u0451\u0436\u043d\u0430\u044f", "network": "\u041c\u0438\u043d\u0441\u043a\u0438\u0439 \u043c\u0435\u0442\u0440\u043e\u043f\u043e\u043b\u0438\u0442\u0435\u043d", "railway": "subway_entrance"}}, {"type": "node", "id": 2454073539, "lat": 53.8771719, "lon": 27.4968635, "tags": {"colour": "blue", "int_name": "Michalova", "name": "\u041c\u0438\u0445\u0430\u043b\u043e\u0432\u043e", "name:be": "\u041c\u0456\u0445\u0430\u043b\u043e\u0432\u0430", "name:en": "Michalova", "name:ru": "\u041c\u0438\u0445\u0430\u043b\u043e\u0432\u043e", "network": "\u041c\u0438\u043d\u0441\u043a\u0438\u0439 \u043c\u0435\u0442\u0440\u043e\u043f\u043e\u043b\u0438\u0442\u0435\u043d", "railway": "subway_entrance", "wheelchair": "yes"}}, {"type": "node", "id": 2454080848, "lat": 53.8769783, "lon": 27.4974828, "tags": {"colour": "blue", "int_name": "Michalova", "name": "\u041c\u0438\u0445\u0430\u043b\u043e\u0432\u043e", "name:be": "\u041c\u0456\u0445\u0430\u043b\u043e\u0432\u0430", "name:en": "Michalova", "name:ru": "\u041c\u0438\u0445\u0430\u043b\u043e\u0432\u043e", "network": "\u041c\u0438\u043d\u0441\u043a\u0438\u0439 \u043c\u0435\u0442\u0440\u043e\u043f\u043e\u043b\u0438\u0442\u0435\u043d", "railway": "subway_entrance", "wheelchair": "yes"}}, {"type": "node", "id": 2478162834, "lat": 53.8896099, "lon": 27.5857556, "tags": {"colour": "red", "int_name": "Pralietarskaja", "name": "\u041f\u0440\u043e\u043b\u0435\u0442\u0430\u0440\u0441\u043a\u0430\u044f", "name:be": "\u041f\u0440\u0430\u043b\u0435\u0442\u0430\u0440\u0441\u043a\u0430\u044f", "name:en": "Proletarskaya", "name:ru": "\u041f\u0440\u043e\u043b\u0435\u0442\u0430\u0440\u0441\u043a\u0430\u044f", "network": "\u041c\u0438\u043d\u0441\u043a\u0438\u0439 \u043c\u0435\u0442\u0440\u043e\u043f\u043e\u043b\u0438\u0442\u0435\u043d", "railway": "subway_entrance"}}, {"type": "node", "id": 2661119799, "lat": 53.8624587, "lon": 27.6734629, "tags": {"colour": "red", "int_name": "Mahilio\u016dskaja", "name": "\u041c\u043e\u0433\u0438\u043b\u0451\u0432\u0441\u043a\u0430\u044f", "name:be": "\u041c\u0430\u0433\u0456\u043b\u0451\u045e\u0441\u043a\u0430\u044f", "name:ru": "\u041c\u043e\u0433\u0438\u043b\u0451\u0432\u0441\u043a\u0430\u044f", "network": "\u041c\u0438\u043d\u0441\u043a\u0438\u0439 \u043c\u0435\u0442\u0440\u043e\u043f\u043e\u043b\u0438\u0442\u0435\u043d", "railway": "subway_entrance"}}, {"type": "node", "id": 2663144713, "lat": 53.8899184, "lon": 27.6165917, "tags": {"colour": "red", "int_name": "Traktarny zavod", "name": "\u0422\u0440\u0430\u043a\u0442\u043e\u0440\u043d\u044b\u0439 \u0437\u0430\u0432\u043e\u0434", "name:be": "\u0422\u0440\u0430\u043a\u0442\u0430\u0440\u043d\u044b \u0437\u0430\u0432\u043e\u0434", "name:ru": "\u0422\u0440\u0430\u043a\u0442\u043e\u0440\u043d\u044b\u0439 \u0437\u0430\u0432\u043e\u0434", "network": "\u041c\u0438\u043d\u0441\u043a\u0438\u0439 \u043c\u0435\u0442\u0440\u043e\u043f\u043e\u043b\u0438\u0442\u0435\u043d", "railway": "subway_entrance"}}, {"type": "node", "id": 2789072818, "lat": 53.8906108, "lon": 27.5855614, "tags": {"colour": "red", "int_name": "Pralietarskaja", "name": "\u041f\u0440\u043e\u043b\u0435\u0442\u0430\u0440\u0441\u043a\u0430\u044f", "name:be": "\u041f\u0440\u0430\u043b\u0435\u0442\u0430\u0440\u0441\u043a\u0430\u044f", "name:en": "Proletarskaya", "name:ru": "\u041f\u0440\u043e\u043b\u0435\u0442\u0430\u0440\u0441\u043a\u0430\u044f", "network": "\u041c\u0438\u043d\u0441\u043a\u0438\u0439 \u043c\u0435\u0442\u0440\u043e\u043f\u043e\u043b\u0438\u0442\u0435\u043d", "railway": "subway_entrance"}}, {"type": "node", "id": 2833298558, "lat": 53.8504325, "lon": 27.4746849, "tags": {"colour": "blue", "int_name": "Malina\u016dka", "name": "\u041c\u0430\u043b\u0438\u043d\u043e\u0432\u043a\u0430", "name:be": "\u041c\u0430\u043b\u0456\u043d\u0430\u045e\u043a\u0430", "name:en": "Mal\u0456na\u016dka", "name:ru": "\u041c\u0430\u043b\u0438\u043d\u043e\u0432\u043a\u0430", "network": "\u041c\u0438\u043d\u0441\u043a\u0438\u0439 \u043c\u0435\u0442\u0440\u043e\u043f\u043e\u043b\u0438\u0442\u0435\u043d", "railway": "subway_entrance"}}, {"type": "node", "id": 2833298561, "lat": 53.8503206, "lon": 27.4753324, "tags": {"colour": "blue", "int_name": "Malina\u016dka", "name": "\u041c\u0430\u043b\u0438\u043d\u043e\u0432\u043a\u0430", "name:be": "\u041c\u0430\u043b\u0456\u043d\u0430\u045e\u043a\u0430", "name:en": "Mal\u0456na\u016dka", "name:ru": "\u041c\u0430\u043b\u0438\u043d\u043e\u0432\u043a\u0430", "network": "\u041c\u0438\u043d\u0441\u043a\u0438\u0439 \u043c\u0435\u0442\u0440\u043e\u043f\u043e\u043b\u0438\u0442\u0435\u043d", "railway": "subway_entrance"}}, {"type": "node", "id": 2833298563, "lat": 53.8507478, "lon": 27.4755051, "tags": {"colour": "blue", "int_name": "Malina\u016dka", "name": "\u041c\u0430\u043b\u0438\u043d\u043e\u0432\u043a\u0430", "name:be": "\u041c\u0430\u043b\u0456\u043d\u0430\u045e\u043a\u0430", "name:en": "Mal\u0456na\u016dka", "name:ru": "\u041c\u0430\u043b\u0438\u043d\u043e\u0432\u043a\u0430", "network": "\u041c\u0438\u043d\u0441\u043a\u0438\u0439 \u043c\u0435\u0442\u0440\u043e\u043f\u043e\u043b\u0438\u0442\u0435\u043d", "railway": "subway_entrance"}}, {"type": "node", "id": 2833298566, "lat": 53.8508563, "lon": 27.474864, "tags": {"colour": "blue", "int_name": "Malina\u016dka", "mapillary": "soo46ziGSVJTJOA_6MAPkQ", "name": "\u041c\u0430\u043b\u0438\u043d\u043e\u0432\u043a\u0430", "name:be": "\u041c\u0430\u043b\u0456\u043d\u0430\u045e\u043a\u0430", "name:en": "Mal\u0456na\u016dka", "name:ru": "\u041c\u0430\u043b\u0438\u043d\u043e\u0432\u043a\u0430", "network": "\u041c\u0438\u043d\u0441\u043a\u0438\u0439 \u043c\u0435\u0442\u0440\u043e\u043f\u043e\u043b\u0438\u0442\u0435\u043d", "railway": "subway_entrance", "start_date": "2014"}}, {"type": "node", "id": 2833318186, "lat": 53.8495578, "lon": 27.4750455, "tags": {"colour": "blue", "int_name": "Malina\u016dka", "name": "\u041c\u0430\u043b\u0438\u043d\u043e\u0432\u043a\u0430", "name:be": "\u041c\u0430\u043b\u0456\u043d\u0430\u045e\u043a\u0430", "name:en": "Mal\u0456na\u016dka", "name:ru": "\u041c\u0430\u043b\u0438\u043d\u043e\u0432\u043a\u0430", "network": "\u041c\u0438\u043d\u0441\u043a\u0438\u0439 \u043c\u0435\u0442\u0440\u043e\u043f\u043e\u043b\u0438\u0442\u0435\u043d", "railway": "subway_entrance"}}, {"type": "node", "id": 2864374343, "lat": 53.876197, "lon": 27.4962131, "tags": {"colour": "blue", "int_name": "Michalova", "name": "\u041c\u0438\u0445\u0430\u043b\u043e\u0432\u043e", "name:be": "\u041c\u0456\u0445\u0430\u043b\u043e\u0432\u0430", "name:en": "Michalova", "name:ru": "\u041c\u0438\u0445\u0430\u043b\u043e\u0432\u043e", "network": "\u041c\u0438\u043d\u0441\u043a\u0438\u0439 \u043c\u0435\u0442\u0440\u043e\u043f\u043e\u043b\u0438\u0442\u0435\u043d", "railway": "subway_entrance", "wheelchair": "yes"}}, {"type": "node", "id": 2864374353, "lat": 53.8761941, "lon": 27.4969787, "tags": {"colour": "blue", "int_name": "Michalova", "name": "\u041c\u0438\u0445\u0430\u043b\u043e\u0432\u043e", "name:be": "\u041c\u0456\u0445\u0430\u043b\u043e\u0432\u0430", "name:en": "Michalova", "name:ru": "\u041c\u0438\u0445\u0430\u043b\u043e\u0432\u043e", "network": "\u041c\u0438\u043d\u0441\u043a\u0438\u0439 \u043c\u0435\u0442\u0440\u043e\u043f\u043e\u043b\u0438\u0442\u0435\u043d", "railway": "subway_entrance", "wheelchair": "yes"}}, {"type": "node", "id": 2870828644, "lat": 53.9281009, "lon": 27.6293208, "tags": {"colour": "blue", "int_name": "Masko\u016dskaja", "name": "\u041c\u0430\u0441\u043a\u043e\u045e\u0441\u043a\u0430\u044f", "name:be": "\u041c\u0430\u0441\u043a\u043e\u045e\u0441\u043a\u0430\u044f", "name:ru": "\u041c\u043e\u0441\u043a\u043e\u0432\u0441\u043a\u0430\u044f", "network": "\u041c\u0438\u043d\u0441\u043a\u0438\u0439 \u043c\u0435\u0442\u0440\u043e\u043f\u043e\u043b\u0438\u0442\u0435\u043d", "railway": "subway_entrance"}}, {"type": "node", "id": 2911576791, "lat": 53.8485982, "lon": 27.4746177, "tags": {"colour": "blue", "int_name": "Malina\u016dka", "name": "\u041c\u0430\u043b\u0438\u043d\u043e\u0432\u043a\u0430", "name:be": "\u041c\u0430\u043b\u0456\u043d\u0430\u045e\u043a\u0430", "name:en": "Mal\u0456na\u016dka", "name:ru": "\u041c\u0430\u043b\u0438\u043d\u043e\u0432\u043a\u0430", "network": "\u041c\u0438\u043d\u0441\u043a\u0438\u0439 \u043c\u0435\u0442\u0440\u043e\u043f\u043e\u043b\u0438\u0442\u0435\u043d", "railway": "subway_entrance", "wheelchair": "yes"}}, {"type": "node", "id": 2911576792, "lat": 53.8486906, "lon": 27.4738439, "tags": {"colour": "blue", "int_name": "Malina\u016dka", "name": "\u041c\u0430\u043b\u0438\u043d\u043e\u0432\u043a\u0430", "name:be": "\u041c\u0430\u043b\u0456\u043d\u0430\u045e\u043a\u0430", "name:en": "Mal\u0456na\u016dka", "name:ru": "\u041c\u0430\u043b\u0438\u043d\u043e\u0432\u043a\u0430", "network": "\u041c\u0438\u043d\u0441\u043a\u0438\u0439 \u043c\u0435\u0442\u0440\u043e\u043f\u043e\u043b\u0438\u0442\u0435\u043d", "railway": "subway_entrance"}}, {"type": "node", "id": 2911576795, "lat": 53.8486341, "lon": 27.4747199, "tags": {"access": "yes", "colour": "blue", "highway": "elevator", "int_name": "Malina\u016dka", "name": "\u041c\u0430\u043b\u0438\u043d\u043e\u0432\u043a\u0430", "name:be": "\u041c\u0430\u043b\u0456\u043d\u0430\u045e\u043a\u0430", "name:en": "Mal\u0456na\u016dka", "name:ru": "\u041c\u0430\u043b\u0438\u043d\u043e\u0432\u043a\u0430", "network": "\u041c\u0438\u043d\u0441\u043a\u0438\u0439 \u043c\u0435\u0442\u0440\u043e\u043f\u043e\u043b\u0438\u0442\u0435\u043d", "railway": "subway_entrance", "wheelchair": "yes"}}, {"type": "node", "id": 2911576796, "lat": 53.8488306, "lon": 27.4738216, "tags": {"access": "yes", "colour": "blue", "highway": "elevator", "int_name": "Malina\u016dka", "name": "\u041c\u0430\u043b\u0438\u043d\u043e\u0432\u043a\u0430", "name:be": "\u041c\u0430\u043b\u0456\u043d\u0430\u045e\u043a\u0430", "name:en": "Mal\u0456na\u016dka", "name:ru": "\u041c\u0430\u043b\u0438\u043d\u043e\u0432\u043a\u0430", "network": "\u041c\u0438\u043d\u0441\u043a\u0438\u0439 \u043c\u0435\u0442\u0440\u043e\u043f\u043e\u043b\u0438\u0442\u0435\u043d", "railway": "subway_entrance"}}, {"type": "node", "id": 2939804388, "lat": 53.9054065, "lon": 27.53787, "tags": {"colour": "red", "int_name": "Frunzienskaja", "name": "\u0424\u0440\u0443\u043d\u0437\u0435\u043d\u0441\u043a\u0430\u044f", "name:be": "\u0424\u0440\u0443\u043d\u0437\u0435\u043d\u0441\u043a\u0430\u044f", "name:ru": "\u0424\u0440\u0443\u043d\u0437\u0435\u043d\u0441\u043a\u0430\u044f", "network": "\u041c\u0438\u043d\u0441\u043a\u0438\u0439 \u043c\u0435\u0442\u0440\u043e\u043f\u043e\u043b\u0438\u0442\u0435\u043d", "railway": "subway_entrance", "wheelchair": "yes"}}, {"type": "node", "id": 3198335093, "lat": 53.8495798, "lon": 27.474171, "tags": {"access": "yes", "colour": "blue", "highway": "elevator", "int_name": "Malina\u016dka", "name": "\u041c\u0430\u043b\u0438\u043d\u043e\u0432\u043a\u0430", "name:be": "\u041c\u0430\u043b\u0456\u043d\u0430\u045e\u043a\u0430", "name:en": "Mal\u0456na\u016dka", "name:ru": "\u041c\u0430\u043b\u0438\u043d\u043e\u0432\u043a\u0430", "network": "\u041c\u0438\u043d\u0441\u043a\u0438\u0439 \u043c\u0435\u0442\u0440\u043e\u043f\u043e\u043b\u0438\u0442\u0435\u043d", "railway": "subway_entrance", "wheelchair": "yes"}}, {"type": "node", "id": 3198335094, "lat": 53.849432, "lon": 27.4751078, "tags": {"access": "yes", "colour": "blue", "highway": "elevator", "int_name": "Malina\u016dka", "name": "\u041c\u0430\u043b\u0438\u043d\u043e\u0432\u043a\u0430", "name:be": "\u041c\u0430\u043b\u0456\u043d\u0430\u045e\u043a\u0430", "name:en": "Mal\u0456na\u016dka", "name:ru": "\u041c\u0430\u043b\u0438\u043d\u043e\u0432\u043a\u0430", "network": "\u041c\u0438\u043d\u0441\u043a\u0438\u0439 \u043c\u0435\u0442\u0440\u043e\u043f\u043e\u043b\u0438\u0442\u0435\u043d", "railway": "subway_entrance", "wheelchair": "yes"}}, {"type": "node", "id": 3323161575, "lat": 53.9015171, "lon": 27.5604042, "tags": {"int_name": "Kastry\u010dnickaja/Kupala\u016dskaja", "name": "\u041a\u0430\u0441\u0442\u0440\u044b\u0447\u043d\u0456\u0446\u043a\u0430\u044f/\u041a\u0443\u043f\u0430\u043b\u0430\u045e\u0441\u043a\u0430\u044f", "name:be": "\u041a\u0430\u0441\u0442\u0440\u044b\u0447\u043d\u0456\u0446\u043a\u0430\u044f/\u041a\u0443\u043f\u0430\u043b\u0430\u045e\u0441\u043a\u0430\u044f", "name:ru": "\u041e\u043a\u0442\u044f\u0431\u0440\u044c\u0441\u043a\u0430\u044f/\u041a\u0443\u043f\u0430\u043b\u043e\u0432\u0441\u043a\u0430\u044f", "network": "\u041c\u0438\u043d\u0441\u043a\u0438\u0439 \u043c\u0435\u0442\u0440\u043e\u043f\u043e\u043b\u0438\u0442\u0435\u043d", "railway": "subway_entrance", "ref": "2-1"}}, {"type": "node", "id": 3323161576, "lat": 53.9012319, "lon": 27.5608028, "tags": {"int_name": "Kastry\u010dnickaja/Kupala\u016dskaja", "layer": "-1", "name": "\u041a\u0430\u0441\u0442\u0440\u044b\u0447\u043d\u0456\u0446\u043a\u0430\u044f/\u041a\u0443\u043f\u0430\u043b\u0430\u045e\u0441\u043a\u0430\u044f", "name:be": "\u041a\u0430\u0441\u0442\u0440\u044b\u0447\u043d\u0456\u0446\u043a\u0430\u044f/\u041a\u0443\u043f\u0430\u043b\u0430\u045e\u0441\u043a\u0430\u044f", "name:ru": "\u041e\u043a\u0442\u044f\u0431\u0440\u044c\u0441\u043a\u0430\u044f/\u041a\u0443\u043f\u0430\u043b\u043e\u0432\u0441\u043a\u0430\u044f", "network": "\u041c\u0438\u043d\u0441\u043a\u0438\u0439 \u043c\u0435\u0442\u0440\u043e\u043f\u043e\u043b\u0438\u0442\u0435\u043d", "railway": "subway_entrance", "ref": "1-1"}}, {"type": "node", "id": 3439005105, "lat": 53.8496836, "lon": 27.4743161, "tags": {"colour": "blue", "int_name": "Malina\u016dka", "name": "\u041c\u0430\u043b\u0438\u043d\u043e\u0432\u043a\u0430", "name:be": "\u041c\u0430\u043b\u0456\u043d\u0430\u045e\u043a\u0430", "name:en": "Mal\u0456na\u016dka", "name:ru": "\u041c\u0430\u043b\u0438\u043d\u043e\u0432\u043a\u0430", "network": "\u041c\u0438\u043d\u0441\u043a\u0438\u0439 \u043c\u0435\u0442\u0440\u043e\u043f\u043e\u043b\u0438\u0442\u0435\u043d", "railway": "subway_entrance"}}, {"type": "node", "id": 3503605667, "lat": 53.8614032, "lon": 27.6734832, "tags": {"colour": "red", "int_name": "Mahilio\u016dskaja", "name": "\u041c\u043e\u0433\u0438\u043b\u0451\u0432\u0441\u043a\u0430\u044f", "name:be": "\u041c\u0430\u0433\u0456\u043b\u0451\u045e\u0441\u043a\u0430\u044f", "name:ru": "\u041c\u043e\u0433\u0438\u043b\u0451\u0432\u0441\u043a\u0430\u044f", "network": "\u041c\u0438\u043d\u0441\u043a\u0438\u0439 \u043c\u0435\u0442\u0440\u043e\u043f\u043e\u043b\u0438\u0442\u0435\u043d", "railway": "subway_entrance"}}, {"type": "node", "id": 3582931137, "lat": 53.8904386, "lon": 27.5857671, "tags": {"colour": "red", "int_name": "Pralietarskaja", "name": "\u041f\u0440\u043e\u043b\u0435\u0442\u0430\u0440\u0441\u043a\u0430\u044f", "name:be": "\u041f\u0440\u0430\u043b\u0435\u0442\u0430\u0440\u0441\u043a\u0430\u044f", "name:en": "Proletarskaya", "name:ru": "\u041f\u0440\u043e\u043b\u0435\u0442\u0430\u0440\u0441\u043a\u0430\u044f", "network": "\u041c\u0438\u043d\u0441\u043a\u0438\u0439 \u043c\u0435\u0442\u0440\u043e\u043f\u043e\u043b\u0438\u0442\u0435\u043d", "railway": "subway_entrance"}}, {"type": "node", "id": 3724930759, "lat": 53.8652682, "lon": 27.4873703, "tags": {"colour": "blue", "int_name": "Piatro\u016d\u0161\u010dyna", "name": "\u041f\u0435\u0442\u0440\u043e\u0432\u0449\u0438\u043d\u0430", "name:be": "\u041f\u044f\u0442\u0440\u043e\u045e\u0448\u0447\u044b\u043d\u0430", "name:ru": "\u041f\u0435\u0442\u0440\u043e\u0432\u0449\u0438\u043d\u0430", "network": "\u041c\u0438\u043d\u0441\u043a\u0438\u0439 \u043c\u0435\u0442\u0440\u043e\u043f\u043e\u043b\u0438\u0442\u0435\u043d", "railway": "subway_entrance"}}, {"type": "node", "id": 3727336431, "lat": 53.9236871, "lon": 27.6121776, "tags": {"colour": "blue", "name": "\u041f\u0430\u0440\u043a \u0427\u0430\u043b\u044e\u0441\u043a\u0456\u043d\u0446\u0430\u045e", "name:be": "\u041f\u0430\u0440\u043a \u0427\u0430\u043b\u044e\u0441\u043a\u0456\u043d\u0446\u0430\u045e", "name:ru": "\u041f\u0430\u0440\u043a \u0427\u0435\u043b\u044e\u0441\u043a\u0438\u043d\u0446\u0435\u0432", "network": "\u041c\u0438\u043d\u0441\u043a\u0438\u0439 \u043c\u0435\u0442\u0440\u043e\u043f\u043e\u043b\u0438\u0442\u0435\u043d", "railway": "subway_entrance", "wheelchair": "yes"}}, {"type": "node", "id": 3789175888, "lat": 53.9064172, "lon": 27.5261183, "tags": {"colour": "red", "elevator": "yes", "int_name": "Maladzio\u017enaja", "name": "\u041c\u043e\u043b\u043e\u0434\u0451\u0436\u043d\u0430\u044f", "name:be": "\u041c\u0430\u043b\u0430\u0434\u0437\u0451\u0436\u043d\u0430\u044f", "name:ru": "\u041c\u043e\u043b\u043e\u0434\u0451\u0436\u043d\u0430\u044f", "network": "\u041c\u0438\u043d\u0441\u043a\u0438\u0439 \u043c\u0435\u0442\u0440\u043e\u043f\u043e\u043b\u0438\u0442\u0435\u043d", "railway": "subway_entrance"}}, {"type": "node", "id": 4198953546, "lat": 53.8774449, "lon": 27.6281564, "tags": {"colour": "red", "int_name": "Partyzanskaja", "name": "\u041f\u0430\u0440\u0442\u0438\u0437\u0430\u043d\u0441\u043a\u0430\u044f", "name:be": "\u041f\u0430\u0440\u0442\u044b\u0437\u0430\u043d\u0441\u043a\u0430\u044f", "name:ru": "\u041f\u0430\u0440\u0442\u0438\u0437\u0430\u043d\u0441\u043a\u0430\u044f", "network": "\u041c\u0438\u043d\u0441\u043a\u0438\u0439 \u043c\u0435\u0442\u0440\u043e\u043f\u043e\u043b\u0438\u0442\u0435\u043d", "railway": "subway_entrance"}}, {"type": "node", "id": 4717522439, "lat": 53.9029961, "lon": 27.5633396, "tags": {"colour": "blue", "int_name": "Kastry\u010dnickaja", "name": "\u041e\u043a\u0442\u044f\u0431\u0440\u044c\u0441\u043a\u0430\u044f", "name:be": "\u041a\u0430\u0441\u0442\u0440\u044b\u0447\u043d\u0456\u0446\u043a\u0430\u044f", "name:ru": "\u041e\u043a\u0442\u044f\u0431\u0440\u044c\u0441\u043a\u0430\u044f", "network": "\u041c\u0438\u043d\u0441\u043a\u0438\u0439 \u043c\u0435\u0442\u0440\u043e\u043f\u043e\u043b\u0438\u0442\u0435\u043d", "railway": "subway_entrance", "ref": "4-2"}}, {"type": "node", "id": 5078295714, "lat": 53.8640144, "lon": 27.4846198, "tags": {"colour": "blue", "int_name": "Piatro\u016d\u0161\u010dyna", "name": "\u041f\u0435\u0442\u0440\u043e\u0432\u0449\u0438\u043d\u0430", "name:be": "\u041f\u044f\u0442\u0440\u043e\u045e\u0448\u0447\u044b\u043d\u0430", "name:ru": "\u041f\u0435\u0442\u0440\u043e\u0432\u0449\u0438\u043d\u0430", "network": "\u041c\u0438\u043d\u0441\u043a\u0438\u0439 \u043c\u0435\u0442\u0440\u043e\u043f\u043e\u043b\u0438\u0442\u0435\u043d", "railway": "subway_entrance", "wheelchair": "yes"}}, {"type": "node", "id": 5110637099, "lat": 53.8915397, "lon": 27.5478674, "tags": {"colour": "blue", "name": "\u041f\u043b\u043e\u0448\u0447\u0430 \u041b\u0435\u043d\u0456\u043d\u0430", "name:be": "\u041f\u043b\u043e\u0448\u0447\u0430 \u041b\u0435\u043d\u0456\u043d\u0430", "name:ru": "\u041f\u043b\u043e\u0449\u0430\u0434\u044c \u041b\u0435\u043d\u0438\u043d\u0430", "network": "\u041c\u0438\u043d\u0441\u043a\u0438\u0439 \u043c\u0435\u0442\u0440\u043e\u043f\u043e\u043b\u0438\u0442\u0435\u043d", "network:be": "\u041c\u0456\u043d\u0441\u043a\u0456 \u043c\u0435\u0442\u0440\u0430\u043f\u0430\u043b\u0456\u0442\u044d\u043d", "network:ru": "\u041c\u0438\u043d\u0441\u043a\u0438\u0439 \u043c\u0435\u0442\u0440\u043e\u043f\u043e\u043b\u0438\u0442\u0435\u043d", "railway": "subway_entrance"}}, {"type": "node", "id": 6323439289, "lat": 53.8773064, "lon": 27.5500299, "tags": {"colour": "green", "int_name": "Kava\u013askaja Slabada", "name": "\u041a\u0430\u0432\u0430\u043b\u044c\u0441\u043a\u0430\u044f \u0421\u043b\u0430\u0431\u0430\u0434\u0430", "name:be": "\u041a\u0430\u0432\u0430\u043b\u044c\u0441\u043a\u0430\u044f \u0421\u043b\u0430\u0431\u0430\u0434\u0430", "name:ru": "\u041a\u043e\u0432\u0430\u043b\u044c\u0441\u043a\u0430\u044f \u0421\u043b\u043e\u0431\u043e\u0434\u0430", "network": "\u041c\u0438\u043d\u0441\u043a\u0438\u0439 \u043c\u0435\u0442\u0440\u043e\u043f\u043e\u043b\u0438\u0442\u0435\u043d", "railway": "subway_entrance", "start_date": "2020", "wheelchair": "yes"}}, {"type": "node", "id": 6323439290, "lat": 53.8773554, "lon": 27.5492749, "tags": {"colour": "green", "int_name": "Kava\u013askaja Slabada", "name": "\u041a\u0430\u0432\u0430\u043b\u044c\u0441\u043a\u0430\u044f \u0421\u043b\u0430\u0431\u0430\u0434\u0430", "name:be": "\u041a\u0430\u0432\u0430\u043b\u044c\u0441\u043a\u0430\u044f \u0421\u043b\u0430\u0431\u0430\u0434\u0430", "name:ru": "\u041a\u043e\u0432\u0430\u043b\u044c\u0441\u043a\u0430\u044f \u0421\u043b\u043e\u0431\u043e\u0434\u0430", "network": "\u041c\u0438\u043d\u0441\u043a\u0438\u0439 \u043c\u0435\u0442\u0440\u043e\u043f\u043e\u043b\u0438\u0442\u0435\u043d", "railway": "subway_entrance", "start_date": "2020", "wheelchair": "yes"}}, {"type": "node", "id": 6323439291, "lat": 53.8780509, "lon": 27.55017, "tags": {"colour": "green", "int_name": "Kava\u013askaja Slabada", "name": "\u041a\u0430\u0432\u0430\u043b\u044c\u0441\u043a\u0430\u044f \u0421\u043b\u0430\u0431\u0430\u0434\u0430", "name:be": "\u041a\u0430\u0432\u0430\u043b\u044c\u0441\u043a\u0430\u044f \u0421\u043b\u0430\u0431\u0430\u0434\u0430", "name:ru": "\u041a\u043e\u0432\u0430\u043b\u044c\u0441\u043a\u0430\u044f \u0421\u043b\u043e\u0431\u043e\u0434\u0430", "network": "\u041c\u0438\u043d\u0441\u043a\u0438\u0439 \u043c\u0435\u0442\u0440\u043e\u043f\u043e\u043b\u0438\u0442\u0435\u043d", "railway": "subway_entrance", "start_date": "2020", "wheelchair": "yes"}}, {"type": "node", "id": 6323439292, "lat": 53.8781008, "lon": 27.5494291, "tags": {"colour": "green", "int_name": "Kava\u013askaja Slabada", "name": "\u041a\u0430\u0432\u0430\u043b\u044c\u0441\u043a\u0430\u044f \u0421\u043b\u0430\u0431\u0430\u0434\u0430", "name:be": "\u041a\u0430\u0432\u0430\u043b\u044c\u0441\u043a\u0430\u044f \u0421\u043b\u0430\u0431\u0430\u0434\u0430", "name:ru": "\u041a\u043e\u0432\u0430\u043b\u044c\u0441\u043a\u0430\u044f \u0421\u043b\u043e\u0431\u043e\u0434\u0430", "network": "\u041c\u0438\u043d\u0441\u043a\u0438\u0439 \u043c\u0435\u0442\u0440\u043e\u043f\u043e\u043b\u0438\u0442\u0435\u043d", "railway": "subway_entrance", "start_date": "2020", "wheelchair": "yes"}}, {"type": "node", "id": 8085918543, "lat": 53.9050816, "lon": 27.5405239, "tags": {"colour": "green", "int_name": "Jubiliejnaja plo\u0161\u010da", "name": "\u042e\u0431\u0456\u043b\u0435\u0439\u043d\u0430\u044f \u043f\u043b\u043e\u0448\u0447\u0430", "name:be": "\u042e\u0431\u0456\u043b\u0435\u0439\u043d\u0430\u044f \u043f\u043b\u043e\u0448\u0447\u0430", "name:ru": "\u042e\u0431\u0438\u043b\u0435\u0439\u043d\u0430\u044f \u043f\u043b\u043e\u0449\u0430\u0434\u044c", "network": "\u041c\u0438\u043d\u0441\u043a\u0438\u0439 \u043c\u0435\u0442\u0440\u043e\u043f\u043e\u043b\u0438\u0442\u0435\u043d", "railway": "subway_entrance"}}, {"type": "node", "id": 8085918546, "lat": 53.9049413, "lon": 27.5408278, "tags": {"colour": "green", "int_name": "Jubiliejnaja plo\u0161\u010da", "name": "\u042e\u0431\u0456\u043b\u0435\u0439\u043d\u0430\u044f \u043f\u043b\u043e\u0448\u0447\u0430", "name:be": "\u042e\u0431\u0456\u043b\u0435\u0439\u043d\u0430\u044f \u043f\u043b\u043e\u0448\u0447\u0430", "name:ru": "\u042e\u0431\u0438\u043b\u0435\u0439\u043d\u0430\u044f \u043f\u043b\u043e\u0449\u0430\u0434\u044c", "network": "\u041c\u0438\u043d\u0441\u043a\u0438\u0439 \u043c\u0435\u0442\u0440\u043e\u043f\u043e\u043b\u0438\u0442\u0435\u043d", "railway": "subway_entrance"}}, {"type": "node", "id": 8087590195, "lat": 53.8963749, "lon": 27.5368467, "tags": {"colour": "green", "int_name": "Plo\u0161\u010da Franci\u0161ka Bahu\u0161evi\u010da", "name": "\u041f\u043b\u043e\u0448\u0447\u0430 \u0424\u0440\u0430\u043d\u0446\u0456\u0448\u043a\u0430 \u0411\u0430\u0433\u0443\u0448\u044d\u0432\u0456\u0447\u0430", "name:be": "\u041f\u043b\u043e\u0448\u0447\u0430 \u0424\u0440\u0430\u043d\u0446\u0456\u0448\u043a\u0430 \u0411\u0430\u0433\u0443\u0448\u044d\u0432\u0456\u0447\u0430", "name:ru": "\u041f\u043b\u043e\u0449\u0430\u0434\u044c \u0424\u0440\u0430\u043d\u0442\u0438\u0448\u043a\u0430 \u0411\u043e\u0433\u0443\u0448\u0435\u0432\u0438\u0447\u0430", "railway": "subway_entrance"}}, {"type": "node", "id": 8087590197, "lat": 53.896799, "lon": 27.5370419, "tags": {"colour": "green", "int_name": "Plo\u0161\u010da Franci\u0161ka Bahu\u0161evi\u010da", "name": "\u041f\u043b\u043e\u0448\u0447\u0430 \u0424\u0440\u0430\u043d\u0446\u0456\u0448\u043a\u0430 \u0411\u0430\u0433\u0443\u0448\u044d\u0432\u0456\u0447\u0430", "name:be": "\u041f\u043b\u043e\u0448\u0447\u0430 \u0424\u0440\u0430\u043d\u0446\u0456\u0448\u043a\u0430 \u0411\u0430\u0433\u0443\u0448\u044d\u0432\u0456\u0447\u0430", "name:ru": "\u041f\u043b\u043e\u0449\u0430\u0434\u044c \u0424\u0440\u0430\u043d\u0442\u0438\u0448\u043a\u0430 \u0411\u043e\u0433\u0443\u0448\u0435\u0432\u0438\u0447\u0430", "railway": "subway_entrance"}}, {"type": "node", "id": 8087590199, "lat": 53.8971438, "lon": 27.5378236, "tags": {"colour": "green", "int_name": "Plo\u0161\u010da Franci\u0161ka Bahu\u0161evi\u010da", "name": "\u041f\u043b\u043e\u0448\u0447\u0430 \u0424\u0440\u0430\u043d\u0446\u0456\u0448\u043a\u0430 \u0411\u0430\u0433\u0443\u0448\u044d\u0432\u0456\u0447\u0430", "name:be": "\u041f\u043b\u043e\u0448\u0447\u0430 \u0424\u0440\u0430\u043d\u0446\u0456\u0448\u043a\u0430 \u0411\u0430\u0433\u0443\u0448\u044d\u0432\u0456\u0447\u0430", "name:ru": "\u041f\u043b\u043e\u0449\u0430\u0434\u044c \u0424\u0440\u0430\u043d\u0442\u0438\u0448\u043a\u0430 \u0411\u043e\u0433\u0443\u0448\u0435\u0432\u0438\u0447\u0430", "railway": "subway_entrance"}}, {"type": "node", "id": 8087590200, "lat": 53.8970827, "lon": 27.538601, "tags": {"colour": "green", "int_name": "Plo\u0161\u010da Franci\u0161ka Bahu\u0161evi\u010da", "name": "\u041f\u043b\u043e\u0448\u0447\u0430 \u0424\u0440\u0430\u043d\u0446\u0456\u0448\u043a\u0430 \u0411\u0430\u0433\u0443\u0448\u044d\u0432\u0456\u0447\u0430", "name:be": "\u041f\u043b\u043e\u0448\u0447\u0430 \u0424\u0440\u0430\u043d\u0446\u0456\u0448\u043a\u0430 \u0411\u0430\u0433\u0443\u0448\u044d\u0432\u0456\u0447\u0430", "name:ru": "\u041f\u043b\u043e\u0449\u0430\u0434\u044c \u0424\u0440\u0430\u043d\u0442\u0438\u0448\u043a\u0430 \u0411\u043e\u0433\u0443\u0448\u0435\u0432\u0438\u0447\u0430", "railway": "subway_entrance"}}, {"type": "node", "id": 8087590203, "lat": 53.8961944, "lon": 27.5388626, "tags": {"colour": "green", "int_name": "Plo\u0161\u010da Franci\u0161ka Bahu\u0161evi\u010da", "name": "\u041f\u043b\u043e\u0448\u0447\u0430 \u0424\u0440\u0430\u043d\u0446\u0456\u0448\u043a\u0430 \u0411\u0430\u0433\u0443\u0448\u044d\u0432\u0456\u0447\u0430", "name:be": "\u041f\u043b\u043e\u0448\u0447\u0430 \u0424\u0440\u0430\u043d\u0446\u0456\u0448\u043a\u0430 \u0411\u0430\u0433\u0443\u0448\u044d\u0432\u0456\u0447\u0430", "name:ru": "\u041f\u043b\u043e\u0449\u0430\u0434\u044c \u0424\u0440\u0430\u043d\u0442\u0438\u0448\u043a\u0430 \u0411\u043e\u0433\u0443\u0448\u0435\u0432\u0438\u0447\u0430", "railway": "subway_entrance", "wheelchair": "yes"}}, {"type": "node", "id": 8087590205, "lat": 53.8966296, "lon": 27.5390886, "tags": {"colour": "green", "int_name": "Plo\u0161\u010da Franci\u0161ka Bahu\u0161evi\u010da", "name": "\u041f\u043b\u043e\u0448\u0447\u0430 \u0424\u0440\u0430\u043d\u0446\u0456\u0448\u043a\u0430 \u0411\u0430\u0433\u0443\u0448\u044d\u0432\u0456\u0447\u0430", "name:be": "\u041f\u043b\u043e\u0448\u0447\u0430 \u0424\u0440\u0430\u043d\u0446\u0456\u0448\u043a\u0430 \u0411\u0430\u0433\u0443\u0448\u044d\u0432\u0456\u0447\u0430", "name:ru": "\u041f\u043b\u043e\u0449\u0430\u0434\u044c \u0424\u0440\u0430\u043d\u0442\u0438\u0448\u043a\u0430 \u0411\u043e\u0433\u0443\u0448\u0435\u0432\u0438\u0447\u0430", "railway": "subway_entrance"}}, {"type": "node", "id": 8089031380, "lat": 53.8958399, "lon": 27.5378338, "tags": {"colour": "green", "int_name": "Plo\u0161\u010da Franci\u0161ka Bahu\u0161evi\u010da", "name": "\u041f\u043b\u043e\u0448\u0447\u0430 \u0424\u0440\u0430\u043d\u0446\u0456\u0448\u043a\u0430 \u0411\u0430\u0433\u0443\u0448\u044d\u0432\u0456\u0447\u0430", "name:be": "\u041f\u043b\u043e\u0448\u0447\u0430 \u0424\u0440\u0430\u043d\u0446\u0456\u0448\u043a\u0430 \u0411\u0430\u0433\u0443\u0448\u044d\u0432\u0456\u0447\u0430", "name:ru": "\u041f\u043b\u043e\u0449\u0430\u0434\u044c \u0424\u0440\u0430\u043d\u0442\u0438\u0448\u043a\u0430 \u0411\u043e\u0433\u0443\u0448\u0435\u0432\u0438\u0447\u0430", "railway": "subway_entrance"}}, {"type": "node", "id": 8109217628, "lat": 53.8895643, "lon": 27.5476402, "tags": {"colour": "green", "entrance": "main", "int_name": "Vakza\u013anaja", "name": "\u0412\u0430\u043a\u0437\u0430\u043b\u044c\u043d\u0430\u044f", "name:be": "\u0412\u0430\u043a\u0437\u0430\u043b\u044c\u043d\u0430\u044f", "name:ru": "\u0412\u043e\u043a\u0437\u0430\u043b\u044c\u043d\u0430\u044f", "network": "\u041c\u0438\u043d\u0441\u043a\u0438\u0439 \u043c\u0435\u0442\u0440\u043e\u043f\u043e\u043b\u0438\u0442\u0435\u043d", "network:be": "\u041c\u0456\u043d\u0441\u043a\u0456 \u043c\u0435\u0442\u0440\u0430\u043f\u0430\u043b\u0456\u0442\u044d\u043d", "network:ru": "\u041c\u0438\u043d\u0441\u043a\u0438\u0439 \u043c\u0435\u0442\u0440\u043e\u043f\u043e\u043b\u0438\u0442\u0435\u043d", "railway": "subway_entrance"}}]}